Name,Contact,Lattitude,Longitude,Landmark,Address,City
Rathod Computer & Stationery,+(91)-40-33015302,17.428928000000,78.447167000000,,Door No 6-3-663/3; Jaffer Ali Bagh; Somajiguda; Hyderabad - 500082,Hyderabad
Raja Laxmi Stationary & Xerox,+(91)-40-33120381,17.434465942202,78.382018945024,Opposite State Bank Of India,House No 2-78/1; Ayyappa Society Road; Madhapur; Opposite State Bank Of India; Hyderabad - 500081,Hyderabad
Sri Ganesh Stationery,+(91)-40-39515036,17.440161000000,78.498341000000,Near Strawberry Hotel; Besides Anand Theatre,Plot No 9a & 9b; Ground Floor; Raghava Apartments; Sp Road; Paigha Colony; Secunderabad; Near Strawberry Hotel; Besides Anand Theatre; Hyderabad - 500003,Hyderabad
Shivam Enterprises,+(91)-40-33086070,17.438667000000,78.489833000000,Beside Sindhi Temple; Khandoji Bazar,Door No 1-6-277; General Bazar; Beside Sindhi Temple; Khandoji Bazar; Hyderabad - 500003,Hyderabad
Pruthvi Print Shop,+(91)-40-33016375,17.443983000000,78.387812000000,Near Hitech Theatre;Opposite To ICICI Bank  Atm,House No 1-98/13/3/2; Arunodaya Colony; Madhapur; Near Hitech Theatre; Opposite To ICICI Bank  Atm; Hyderabad - 500081,Hyderabad
Prisha Computers & Stationeries,+(91)-40-33018271,17.424400803740,78.454991075582,Opp Nims Hospital & Model House; beside gokul towers,Shop.no 6-3-668/9/16; Panjagutta main road; Panjagutta; Opp Nims Hospital & Model House; beside gokul towers; Hyderabad - 500082,Hyderabad
Shri Rajeshwar Enterprises,+(91)-40-33017564,17.438375000000,78.489875000000,Near Jagarnath Temple,1-6-213; Kandoji Bazar; Secunderabad; Near Jagarnath Temple; Hyderabad - 500003,Hyderabad
Wisdom Stationery,+(91)-40-33069075,17.399244305556,78.379295333333,near prathiba high school,5-54; sreeram nagar; manikonda; Manikonda; near prathiba high school; Hyderabad - 500089,Hyderabad
Vishakha Enterprises,+(91)-40-33013819,17.428617000000,78.451880000000,Opposite Pochamma Temple,Shop No 6-3-708/709/A/9; Panjagutta Colony; Panjagutta; Opposite Pochamma Temple; Hyderabad - 500082,Hyderabad
Sree Rama Binding Works,+(91)-40-33068620,17.437012000000,78.493492000000,opposite jyothi art studio,Door No 3-2-69; General bazaar; General Bazar; opposite jyothi art studio; Hyderabad - 500003,Hyderabad
Ink N Paper,+(91)-40-33731545,17.450147000000,78.391700000000,Hitech City Road,Door No 1-89/C/18/11; Madhapur; Hitech City Road; Hyderabad - 500081,Hyderabad
Himalaya Book Depot,+(91)-40-23214879; +(91)-40-64500913,17.391338000000,78.466055000000,Near Yousufain Darga,Shop No:5-7-561; Nampalli; Nampally; Near Yousufain Darga; Hyderabad - 500001,Hyderabad
Landmark Stores,+(91)-40-64631583; +(91)-40-40505000; +(91)-40-64631584; +(91)-40-64631597,17.419362000000,78.458234000000,Somajiguda Circle; Beside Kirtilal Jewellers,Kmc Retail Mall; Begumpet Road; Somajiguda; Somajiguda Circle; Beside Kirtilal Jewellers; Hyderabad - 500082,Hyderabad
Himalaya Book World,+(91)-40-23348880; +(91)-40-64551640,17.400667000000,78.449945000000,Opposite Hockey Ground; Shantinagar,Shop No 101; Ground Floor; Maphar Exocita; Shanti nagar colony; Masab Tank; Opposite Hockey Ground; Shantinagar; Hyderabad - 500028,Hyderabad
Unique Book World & Stationery,+(91)-40-40061423,17.499413000000,78.383370000000,Beside Chermas,Door No 16-2-116/1A; Plot No MIG-19; Main Road; Hyder Nagar-Kukatpally; Beside Chermas; Hyderabad - 500072,Hyderabad
Adarsh Book Depot,+(91)-40-27671054,17.397797000000,78.504745000000,Beside Vijaya Bank,H.no. 2-1-457/2; Osmania University Road; Nallakunta; Beside Vijaya Bank; Hyderabad - 500044,Hyderabad
Vikas Books Center,+(91)-40-27171548,17.415920000000,78.544900000000,Opposite Cftri Beside  OBC Bnak,18/3 Sri Sai  Sampada Plaza; Street No 6; Habsiguda; Opposite Cftri Beside  OBC Bnak; Hyderabad - 500007,Hyderabad
Deccan Pen Stores,+(91)-40-27813020; +(91)-40-66493020,17.438647000000,78.494928000000,Opposite To Dargha,Shop No.:3-1-129; Rashtra Pathi Road; Secunderabad; Opposite To Dargha; Hyderabad - 500003,Hyderabad
Sri Venkateshwara Book World,+(91)-40-24110882,17.330028000000,78.569162000000,Opposite Andhra Bank,Plot No 46; Red Water Tank Lane; Vanasthalipuram; Opposite Andhra Bank; Hyderabad - 500070,Hyderabad
Himalaya Stationary & Packers,,17.475553000000,78.426712000000,Near Vallabha Sadan Beside Registration Office,Plot No 22; 5-36/G4 Sony complex; Prasanth Nagar; Kukatpally; Near Vallabha Sadan Beside Registration Office; Hyderabad - 500072,Hyderabad
Gopal Stationary & Paper Mart,+(91)-40-64643254; +(91)-40-27812532,17.437500000000,78.489444444444,Near Gandhi Statue;near jaganath swamy temple,3-4-425; General Bazar; Near Gandhi Statue; near jaganath swamy temple; Hyderabad - 500003,Hyderabad
Hina Pen & Stationers,+(91)-40-23201762; +(91)-40-66133512,17.393300000000,78.476158000000,Opposite To Charmas; Beside To Mc. Donalds,Shop No.#5-9-232; Abids Main Road; Abids; Opposite To Charmas; Beside To Mc. Donalds; Hyderabad - 500001,Hyderabad
Green Gold Store,+(91)-40-66208222,17.444715229675,78.467155550920,Opposite Indian Oil Petrol Bunk,Door No : 1-10-9/1/2; Main Road; Begumpet; Opposite Indian Oil Petrol Bunk; Hyderabad - 500016,Hyderabad
Central Book Zone,+(91)-40-23110507,17.441095000000,78.391495000000,Beside Vikram Hospitals,#1-98/90/26/1; Hitech City Road; Madhapur; Beside Vikram Hospitals; Hyderabad - 500081,Hyderabad
Sharma Xerox & Stationery,,17.394460000000,78.439164000000,Opposite Pillar No : 21; Beside Nikitha Bar,Rethibowli Road; Mehdipatnam; Opposite Pillar No : 21; Beside Nikitha Bar; Hyderabad - 500028,Hyderabad
Srinivasa Book Centre,+(91)-40-27971978,17.499870000000,78.513620000000,Beside HDFC Bank,Shop No 12-98; Main Road; Alwal; Beside HDFC Bank; Hyderabad - 500010,Hyderabad
J. B. Book World,+(91)-40-65142409,17.409717000000,78.398942000000,Beside Narayanamma College,Door NO 8-1-297/2/F/1; Falcon Colony; H S Darga-Shaikpet; Beside Narayanamma College; Hyderabad - 500008,Hyderabad
Pruthvi Stationery,,17.443272000000,78.387328000000,Hitech City Road; Opposite Krish Affairs,House No 1-98/15/1/192; Madhapur; Hitech City Road; Opposite Krish Affairs; Hyderabad - 500081,Hyderabad
Rocking Parties,,17.490533000000,78.390625000000,Opposite more super market,Shop Number 15-31-2L-11/6; Jntu-hitech city road; KPHB Colony; Opposite more super market; Hyderabad - 500085,Hyderabad
Priyatam   Stores,+(91)-40-27243713,17.457267000000,78.536675000000,Opposite Cinepolis And Ramchandra Theatre; Near Anandbagh Cross Road,Malla Reddy Complex; Shop No 23-47/1; Main Road; RK Nagar-Malkajgiri; Opposite Cinepolis And Ramchandra Theatre; Near Anandbagh Cross Road; Hyderabad - 500047,Hyderabad
Tirumala Traders,+(91)-40-23777647,17.465625000000,78.448692000000,Bala Nagar X Road;Opposite HP Petrol Pump,Shop No :3-110; Bala Nagar  Main Road; Bala Nagar; Bala Nagar X Road; Opposite HP Petrol Pump; Hyderabad - 500037,Hyderabad
Satnam Book Stall,,17.437167000000,78.500333000000,Behind old manohar theatre,Sh no 9-4-87; Rezimental bazaar; Secunderabad; Behind old manohar theatre; Hyderabad - 500003,Hyderabad
Sharada Book Depot & Stationary,,17.436845777778,78.503898611111,Opposite Lekhan Bhavan; Rezimental Bazar,Secunderabad; Opposite Lekhan Bhavan; Rezimental Bazar; Hyderabad - 500003,Hyderabad
Anoops Blue Book,+(91)-40-27802626,17.446997000000,78.508422000000,Opposite Geetha Nursing Home,Door No 10-2-1; Radha Ramanlal Building; Street No 8; East Marredpally; Opposite Geetha Nursing Home; Hyderabad - 500026,Hyderabad
Sri Atluri Tours & Travels,+(91)-40-65128999,17.510858000000,78.384505000000,Opposite Kamma Sangham,Shop No 1; House No 3-86/9/1; Nizampet Road; Nizampet; Opposite Kamma Sangham; Hyderabad - 500090,Hyderabad
Reliable Book World,,17.396644000000,78.481676000000,Opposite Pillar No 143 Road;Opposite Ram Mandir; Rambagh,Shop No 2; Sartaj complex; Kishan bagh Road; Attapur; Opposite Pillar No 143 Road; Opposite Ram Mandir; Rambagh; Hyderabad - 500048,Hyderabad
Reliable book Centre,,17.395028000000,78.427230000000,Opposite  bata show room,#12-2-718/A/7; Nanal nagar road; Nanal Nagar-Toli Chowki; Opposite  bata show room; Hyderabad - 500008,Hyderabad
Sujatha Stationery & DTP Centre,,17.414538800000,78.448733000000,opp sri nalla pochamma temple,8-2-684/105/c; durga tower; nbt nagar; Road No.12; Banjara Hills; opp sri nalla pochamma temple; Hyderabad - 500034,Hyderabad
Central Book Traders,+(91)-40-23545643,17.429905000000,78.427520000000,opposite to green bawarchi,8-2-293/K/313/2; Indira Nagar Bus Stop; Kamalapuri Colony-Sri Nagar Colony; opposite to green bawarchi; Hyderabad - 500073,Hyderabad
R K Prakash Educational Printers & Stationary,,17.372155000000,78.524278000000,below bashyam school,Nvs Complex; Bhashyam School Building; shalivahana nagar; Dilsukhnagar; below bashyam school; Hyderabad - 500060,Hyderabad
Priyanka Stationery Mart,+(91)-40-24731227,17.376055000000,78.474113000000,Near Osmania General Hospital,Shop No 15-8-26; Main Road; Siddiamber Bazar; Near Osmania General Hospital; Hyderabad - 500012,Hyderabad
G Amrutlal & Sons,+(91)-40-24600078; +(91)-40-24600871,17.380706777778,78.485496500000,Near Gowliguda Chaman,Shop No 15-3-1 & 2; NEAR AFZAL JUNG; Gowli Guda; Near Gowliguda Chaman; Hyderabad - 500012,Hyderabad
Sri Vani Stationers,+(91)-40-65137825; +(91)-40-27098058,17.405295000000,78.515687000000,Opposite to Geetanjali High School,# 2-2-6/4; SAI Chandra Apartments; Ou main road Shivam Road; New Nallakunta; Opposite to Geetanjali High School; Hyderabad - 500044,Hyderabad
Central Book Syndicate,+(91)-40-27830006,17.438745000000,78.505013000000,Near Apollo hospital; Opp Keys High School,Plot No 10-3-171/14; Hayagreeva Complex; St Johns Road; Secunderabad; Near Apollo hospital; Opp Keys High School; Hyderabad - 500003,Hyderabad
Venkataramana Graphics,,17.433714300000,78.444346700000,Ameerpet; Hyderabad,220 A Krishna Apartments; Ameerpet; Ameerpet; Hyderabad; Hyderabad - 500016,Hyderabad
Star Stationers,+(91)-40-24611836,17.383751000000,78.475857000000,,Shop No 11; Muharram Jahi Road; Nampally; Hyderabad - 500001,Hyderabad
deccan book centre,,17.361043000000,78.478772000000,,18-7-198/a/5; Atiya house complex; Moghalpura; Hyderabad - 500002,Hyderabad
Gopal Stationery & Paper Mart,,17.437684000000,78.490144000000,,Main Road; General Bazar; Hyderabad - 500003,Hyderabad
New Himalaya Stationery,,17.352612000000,78.554038000000,Beside To United Bank,Siris Road Opposite Lane To Big Bazar; L B Nagar; Beside To United Bank; Hyderabad - 500074,Hyderabad
Sharma Xerox,,17.391897000000,78.441722000000,,Shop 3; Main road; Mehdipatnam; Hyderabad - 500028,Hyderabad
Walmart Stationery,,17.406983800000,78.375690000000,Beside Harivillu,3-4-35/B; Pleasant valley; Manikonda; Beside Harivillu; Hyderabad - 500089,Hyderabad
sln enterprises,,17.367850000000,78.535103000000,opposite narayana college,h.no:2-23-22/2; krishnaveni nagar; Chaitanyapuri; opposite narayana college; Hyderabad - 500060,Hyderabad
Vaishnavi Enterprises Internet Stationary,,17.369038000000,78.531647000000,opp Narayana e techno school,shop No: B-28; chaitanyapuri; Dilsukhnagar; opp Narayana e techno school; Hyderabad - 500060,Hyderabad
Pen corner,,17.329038000000,78.569070000000,Near red water tank,B 412; NGOs colony; Vanasthalipuram; Near red water tank; Hyderabad - 500070,Hyderabad
Sai ram stationary,,17.475478000000,78.570736000000,Beside petrol bunk,Plot no#2; Chakripuram; ECIL; Beside petrol bunk; Hyderabad - 500062,Hyderabad
Green Gold Store,+(91)-40-44361969; +(91)-40-44361999,17.421910000000,78.465394000000,,Necklace Road; Eat Street; Necklace Road; Hyderabad - 500004,Hyderabad
Remax Enterprises,+(91)-40-24650332; +(91)-40-66736230,17.382167000000,78.476333000000,Risala Abdulla; Lane Opposite Registrar Office,Door No 5-2-408; Osmangunj; Osmangunj; Risala Abdulla; Lane Opposite Registrar Office; Hyderabad - 500012,Hyderabad
The Deccan Stationery Stores,+(91)-40-66334300,17.369562000000,78.478467000000,Near City Civil Court,Shop No 22-8-85 & 86; Police Commissioner Office Road; Chatta Bazar; Near City Civil Court; Hyderabad - 500002,Hyderabad
Ganesh Books & Gift Novelties,,17.404085138889,78.543556194444,Beside Axis Bank,House No : 7-70/2; Ground Floor.; Street No : 8; JS Colony.; Habsiguda; Beside Axis Bank; Hyderabad - 500007,Hyderabad
Green Gold Store,+(91)-40-66176333; +(91)-40-44361999,17.476666666667,78.563500000000,Near Radhika Cinema; Anupuram Colony,1st Floor; Radhika Movieplex; A S Rao Nagar; Near Radhika Cinema; Anupuram Colony; Hyderabad - 500062,Hyderabad
Sree Dwaraka Autmatic Xerox,,17.443878000000,78.470733000000,Opp to Old Air Port,#1-8-612; Shop No.2; 26/3RT; Prakash Nagar; Begumpet; Opp to Old Air Port; Hyderabad - 500016,Hyderabad
Naveen Book Store & Stationary,,17.466100000000,78.472892000000,Opposite To Post Office Lane,Shop No.1-1-5 &1-1-6; Comsary Bazaar; New Bowenpally; Opposite To Post Office Lane; Hyderabad - 500011,Hyderabad
Sri Srinivasa Book Centre,+(91)-40-27050493; +(91)-40-27052806,17.450270000000,78.535378000000,Opposite Kanaka Durga Wines,Shop Number: 1-25; Malkajgiri X Road; Malkajgiri; Opposite Kanaka Durga Wines; Hyderabad - 500047,Hyderabad
Delhi Stationary,,17.416042000000,78.444185000000,,Plot No 10; Banjara Hills; Hyderabad - 500034,Hyderabad
Kranti  Book House,,17.411530000000,78.460817000000,Beside Water works; Near Seven Temple,Shop No 6-2-913/914; Ground Floor; Progressive Towers; Khairatabad Main Road; Khairatabad; Beside Water works; Near Seven Temple; Hyderabad - 500004,Hyderabad
Bhavana Stationery,+(91)-40-23306932; +(91)-40-66325451; +(91)-40-66462196,17.418097000000,78.457763000000,Near Medinova Diagnostic,Shop No 8; Maheswari Chambers; Somajiguda; Somajiguda; Near Medinova Diagnostic; Hyderabad - 500082,Hyderabad
Officemart stationers,,17.404025000000,78.408287000000,Beside Raymond showroom,Plot no.8-1-523/302; Gachibowli road; Toli Chowki; Beside Raymond showroom; Hyderabad - 500008,Hyderabad
Lucky Enterprises..,+(91)-40-66340939,17.432229258136,78.448740486129,Lane Adjacent  MOR Jewellers,Shop No E; Door No.6-3-883/A/1/1; Ground Floor; Span Classic Complex; PC Jewellers Lane; Panjagutta; Lane Adjacent  MOR Jewellers; Hyderabad - 500082,Hyderabad
Bhagwan Stationers,,17.380930000000,78.475037000000,Opp.Sheel Lock,Mozamjahi Marktet Road; Hyderabad; Mozamjahi Market Road; Osmangunj; Opp.Sheel Lock; Hyderabad - 500012,Hyderabad
New Kayees Pen Corner & Stationers,+(91)-40-24756775,17.385221472222,78.482658361111,,Koti; Hyderabad; Main Road; Koti; Hyderabad - 500095,Hyderabad
Sri Vidhya Books Stationary,,17.408037000000,78.485092000000,Beside Kuchipudi Dance Academy; Gagan Mahal,Door No 1-2-288/3; Shop No 496; Street No 3; Domalguda-Himayat Nagar; Beside Kuchipudi Dance Academy; Gagan Mahal; Hyderabad - 500029,Hyderabad
Ramesh Stationery & General Store,+(91)-40-23223016,17.396380000000,78.486388000000,Near masjid,Shop No:3-5-759/a; Vittal wadi; Vittal Wadi-Narayanguda; Near masjid; Hyderabad - 500029,Hyderabad
Vidya Book Point,,17.397578000000,78.377053000000,near aditya fort view;Near shivalayam te,Shop no 1; puppalaguda; Manikonda; near aditya fort view; Near shivalayam te; Hyderabad - 500089,Hyderabad
Jain Stationery & Gifts,,17.440161000000,78.498341000000,Risala Bazar; Opposite Chand Hotel; Near Gandhi Statue,Shop No 1427; Secunderabad; Risala Bazar; Opposite Chand Hotel; Near Gandhi Statue; Hyderabad - 500003,Hyderabad
Dachepalli Book Point,,17.435142000000,78.503333000000,opposite lane to Ganesh temple,Door No 9-3-294; rezmintal bazar; Regimental Bazar; opposite lane to Ganesh temple; Hyderabad - 500025,Hyderabad
Sri Vidhya Vaibhav Collection,+(91)-40-27952151,17.469080000000,78.484117000000,Beside Ashoka Garden,Shop No. 127 & 129/1; Mahatma Nagar; Hasmathpet-Bowenpally; Beside Ashoka Garden; Hyderabad - 500011,Hyderabad
Bhavani Gifts & Stationary,,17.454650000000,78.502258000000,Opp Gandhian High School,Shop no 3-5-176/B; Willingon Main Road; Picket-Secunderabad; Opp Gandhian High School; Hyderabad - 500003,Hyderabad
Indian Book House,,17.357142000000,78.521662000000,Beside S M Model school; Near SBH Bsnk,Shop No 17-1-291/T/198/4; Main Road; Singareni Colony Road; Saidabad; Saidabad; Beside S M Model school; Near SBH Bsnk; Hyderabad - 500059,Hyderabad
Non Judicial Stamps and Franking,,17.495277777778,78.395555555556,Near JNTU,D.R. Colony Phase-1; Andhra Pradesh; Kphb road no 5; Kukatpally; Near JNTU; Hyderabad - 500072,Hyderabad
The Pen World,,17.500963000000,78.472733000000,Opposite Bajaj Show Room,Door No 6-27; Quthubullapur Road; Suchitra Cross Road; Opposite Bajaj Show Room; Hyderabad - 500067,Hyderabad
Navodaya Books & Stationery,,17.500253000000,78.389542000000,Near by Vijetha super market,Shop No 7; Jaibharat Nagar; Nizampet Main Road; Nizampet; Near by Vijetha super market; Hyderabad - 500090,Hyderabad
KITSONS,+(91)-40-64645689,17.497164000000,78.361183000000,Heritage fresh,JAYABHARATHIS KALPANA; Miyapur main road; Miyapur; Heritage fresh; Hyderabad - 500049,Hyderabad
Balaji Stationery & Sports,+(91)-40-23033030,17.494500000000,78.322333000000,Opp  Pragnya Degree College,Hno 4-39; Near Gandhi Statue Road; Chanda Nagar; Opp  Pragnya Degree College; Hyderabad - 500050,Hyderabad
Rahul Book & Stationers,,17.385667000000,78.439833000000,Near Sai Baba Temple,Shop No 12-2-422/3-B; Gudimalkapur; Gudi Malkapur; Near Sai Baba Temple; Hyderabad - 500028,Hyderabad
Hyderabad Book Point,+(91)-40-65588909,17.396644000000,78.481676000000,Opp Mantra Mall,PNR Apartment; Pillar no 184; Attapur; Opp Mantra Mall; Hyderabad - 500048,Hyderabad
Padmavathi Pens Store Art & Craft,+(91)-40-66131183,17.396375000000,78.491150000000,Near YMCA;Opp To Yamaha Showroom,H.no.3-6-459 f no 3; Narayanguda Main Road; Narayanguda; Near YMCA; Opp To Yamaha Showroom; Hyderabad - 500029,Hyderabad
Arrow Stationers,+(91)-40-27633879,17.408678000000,78.491158000000,Opposite State Bank ATM,Door No 1-1-379/256; Street No 347; Ashok Nagar Road; Ashok Nagar; Opposite State Bank ATM; Hyderabad - 500020,Hyderabad
Sree Stores,,17.510709750000,78.301139805556,Beside Mallikarjuna Function Hall,25-36/12/5; Beeramguda Main Road; Beeramguda; Beside Mallikarjuna Function Hall; Hyderabad - 502032,Hyderabad
Laxmi Stationary,,17.448293000000,78.391485000000,Near; Hanuman temple,Parvath nagar; Madhapur; Near; Hanuman temple; Hyderabad - 500081,Hyderabad
Sharada Stationery & Toys,,17.451667000000,78.366167000000,Near Community Hall; Near Vidya Talent School,Shop No 135/65; Anjaiah Nagar; Gachibowli; Near Community Hall; Near Vidya Talent School; Hyderabad - 500032,Hyderabad
Hasti Stationary Mart,,17.440430000000,78.394470000000,Opp. Blue Diamond Cafe; in cellular,Survey no. 1-63/4; Guttala Begumpet; Hitech City Road; Madhapur; Opp. Blue Diamond Cafe; in cellular; Hyderabad - 500081,Hyderabad
Sharada Book Depot,+(91)-40-65974681,17.419305000000,78.491670000000,NEAR POST OFFICE,1-3-183/39/d4; PADMASHALI COLONY; Gandhi Nagar-Kavadiguda; NEAR POST OFFICE; Hyderabad - 500080,Hyderabad
Priyadarshinis Stationery,,17.410050000000,78.449617000000,Beside Santhosh Banjara Hotel; Beside Pizza Hut; Mithila Nagar,House No 8-2-629/1/A; Road No 12; Banjara Hills; Beside Santhosh Banjara Hotel; Beside Pizza Hut; Mithila Nagar; Hyderabad - 500034,Hyderabad
Madina Book Centre and Stationery,,17.398970000000,78.418312000000,Beside inspire digi school;digi school;near kabahospital,Shop no.9-4-70/1; Nizam colony; Toli Chowki; Beside inspire digi school; digi school; near kabahospital; Hyderabad - 500008,Hyderabad
Swastik Stationery,+(91)-40-66785060,17.432201220670,78.446335131376,Opposite R S Brothers Lane,Shop  No 8-3-903/F/11; Yellamma Reddy Road; Ameerpet; Opposite R S Brothers Lane; Hyderabad - 500016,Hyderabad
Office World,+(91)-40-66753233,17.437158000000,78.450417000000,Opposite Health & Glow Stores,Door No 6/3/1090; Shop No G-9; Rajbhavan Road; Somajiguda; Opposite Health & Glow Stores; Hyderabad - 500082,Hyderabad
Venkateshwara Xerox & Lamination  Centre,,17.408480000000,78.477837000000,Opposite AV college,Shop no #1-2-393/d; Street no 4; Gagan Mahal-Himayat Nagar; Opposite AV college; Hyderabad - 500029,Hyderabad
R Mohanlal House Of Pens;,,17.387939000000,78.476497000000,,Siddiamber Bazar; Hyderabad; Hyderabad - 500001,Hyderabad
Praveen Products,+(91)-40-24738579,17.376077000000,78.471188000000,vijay bhavan hotel,5-2-464/1; Risala Abdulla; Osmangunj; vijay bhavan hotel; Hyderabad - 500012,Hyderabad
Murali Stationery Mart,,17.376077000000,78.471188000000,Risala Abdulah,5-2-440/2; Osmangunj; Osmangunj; Risala Abdulah; Hyderabad - 500012,Hyderabad
Vijay Enterprises,+(91)-40-24752627,17.389833000000,78.479167000000,Opposite to Abids Function Hall,Shop No.#4-1-889/11; Abids Main Road; Tilak Road; Opposite to Abids Function Hall; Hyderabad - 500001,Hyderabad
Sri Venkateshwara Stationary,,17.396644000000,78.481676000000,Opposite More Super Market;Hyderguda Main Road,Shop Number-3-5-82/2/B; Krishna Nagar Colony; Attapur; Opposite More Super Market; Hyderguda Main Road; Hyderabad - 500048,Hyderabad
Bhawani Stationary Mart,,17.379862000000,78.476263000000,Opposite To Andhra Bank ATM Lane,Shop No 4; 5-2-851 To 853; Sadguru Complex; Risalla Adbullah; Osmangunj; Opposite To Andhra Bank ATM Lane; Hyderabad - 500012,Hyderabad
Lepakshi Books & Stationery,+(91)-40-23818433,17.443333000000,78.440522000000,Behind SR Nagar Bus Stop,Door No .28-A; SR Nagar Main Road; Vengal Rao Nagar; Behind SR Nagar Bus Stop; Hyderabad - 500038,Hyderabad
Prakash Stationers & General,+(91)-40-23221139,17.403263000000,78.482688000000,Opposite Lakshmi Hyundai Showroom,Shop no. # 3-6-140/4; Himayat Nagar Road; Himayat Nagar; Opposite Lakshmi Hyundai Showroom; Hyderabad - 500029,Hyderabad
Vishal Book Stationary,+(91)-40-66568866,17.400112000000,78.490592000000,Opposite to the Autofin Honda,Shop No. 3-5-926/18; Street No : 12 narayanguda; Himayat Nagar; Opposite to the Autofin Honda; Hyderabad - 500029,Hyderabad
Divya Stationery Gift & Novelties,,17.395162000000,78.492700000000,Near Reddy Womens College,# 3-4-529/3/3; YMCA Road; Narayanguda; Near Reddy Womens College; Hyderabad - 500029,Hyderabad
Renuka Book & Stationary,,17.453205000000,78.443305000000,Near Vegetable Market,SRT 655; H. no 7-2-910; Swamy Function Hall Road; Sanath Nagar; Near Vegetable Market; Hyderabad - 500018,Hyderabad
Moorthy Trading Company,+(91)-40-66774762,17.404584000000,78.495777000000,Opposite to Allahabad Bank,# 1-1-258/19/6; MCH Market Road; Chikkadpally; Opposite to Allahabad Bank; Hyderabad - 500020,Hyderabad
Gurus Pen Centre,+(91)-40-27819990,17.438031300000,78.490141200000,Beside Jaganatha Swamy Temple,Door No 1-5-98; General Bazar; Beside Jaganatha Swamy Temple; Hyderabad - 500003,Hyderabad
Standard Stationary,+(91)-40-66363634,17.442729645425,78.387464918269,Behind Krish Saphire ;jockey showoom,1-982/2; Vinayak nagar; Hitech City Road; Madhapur; Behind Krish Saphire; jockey showoom; Hyderabad - 500081,Hyderabad
Friends Agencies,,17.439862000000,78.490897000000,Lane Beside Minerva complex;,H no.1-34/4; Kalsiguda; Secunderabad; Lane Beside Minerva complex; Hyderabad - 500003,Hyderabad
Padmavathi Enterprises,+(91)-40-27715692; +(91)-40-27702722; +(91)-40-64566641; +(91)-40-42031079,17.438203000000,78.494728000000,Near syndicate bank,Door No 8-1-403; Rastrapathi road; Secunderabad; Near syndicate bank; Hyderabad - 500003,Hyderabad
Bharathi Book Center,,17.438840861111,78.496948222222,Near Old Passport Office,Door No 8-3-271/1; Market Street; Secunderabad; Near Old Passport Office; Hyderabad - 500003,Hyderabad
Shraddha Plaza,+(91)-40-65810737,17.435926416667,78.504280083333,opposite ganesh tempel,Shop  No 9-3-263; station road; Regimental Bazar; opposite ganesh tempel; Hyderabad - 500025,Hyderabad
Padmavathi Book Center,,17.395734777778,78.521942138889,opp gandhi statue,shop no 2-2-401; Amberpet main road; Amberpet; opp gandhi statue; Hyderabad - 500013,Hyderabad
Gayatri Book Centre,+(91)-40-24530440,17.346828000000,78.508247000000,Opp Yadagiri Theatre,H No.-1; Migh; Santoshnagar Main Road; Santosh Nagar; Opp Yadagiri Theatre; Hyderabad - 500059,Hyderabad
Apex Collections,,17.476238000000,78.482047000000,Beside State Bank Of Hyderabad,Shop no: No 6; Plot No 8-5-225/F; Bowenpally X Roads; Bowenpally; Beside State Bank Of Hyderabad; Hyderabad - 500011,Hyderabad
S V Traders,+(91)-40-24048950; +(91)-40-24058950,17.368953000000,78.522553000000,Opposite Chandana Brothers,Shop No 16-11-477/10; Dilsukhnagar; Opposite Chandana Brothers; Hyderabad - 500060,Hyderabad
S V Book World,,17.371608275005,78.524125395416,Opp Bhasyam School,Shop no #16-11/C S No 16-17; Main Road; Shaliwahana nagar; Dilsukhnagar; Opp Bhasyam School; Hyderabad - 500060,Hyderabad
Saraswathi Book Centre,+(91)-40-24063232,17.366220000000,78.525795000000,Beside Sai Ram Hospital,7-76/2; P & T Colony Main Road; P & T Colony-Dilsukh Nagar; Beside Sai Ram Hospital; Hyderabad - 500060,Hyderabad
Y2K Stationary,+(91)-40-23161968,17.491333000000,78.408167000000,Near KL Bar,Shop No:3; Vivekananda Nagar; Kukatpally; Near KL Bar; Hyderabad - 500072,Hyderabad
Shiva Book Depot,+(91)-40-24052509,17.367218000000,78.532974222222,Near Khazana Jewellery,Shop No #4; Chaitanyapuri Main Road; Dilsukhnagar; Near Khazana Jewellery; Hyderabad - 500060,Hyderabad
Saraswathi Enterprises,,17.404553000000,78.543700000000,Beside Canara Bank; JS Nagar,Shop No 7-24/5B; Ground Floor; Street No 8; Habsiguda; Beside Canara Bank; JS Nagar; Hyderabad - 500007,Hyderabad
Geeta Enterprises,,17.488499630050,78.541457455556,Beside Ding Dong Super Market,Plot no b-244; near telephone exchange; Defence Colony; Defence Colony-Sainikpuri; Beside Ding Dong Super Market; Hyderabad - 500094,Hyderabad
Dhanlaxmi Stationary Gifts & General Stores,,17.407312000000,78.597145000000,Opp to Orange Supermarket,non; Maruti Nagar; Medpalli-Peerzadiguda; Opp to Orange Supermarket; Hyderabad - 500039,Hyderabad
Sri Bhavani Books & Stationery,,17.511758725175,78.301757862864,Near Apollo Pharmacy,Ms Reddy Shopping Complex; Ground Floor; Shop No G3; Sai Colony; Beeramguda; Near Apollo Pharmacy; Hyderabad - 502032,Hyderabad
Crescent Stationers,+(91)-40-65700273,17.368327100000,78.478987800000,,No. 22-8-608; City Civil Court Road; Chatta Bazar; Hyderabad; Chatta Bazar; Hyderabad - 500002,Hyderabad
A Minds Book Store,,17.369478000000,78.517312000000,Above Tanishq Showroom,1st Floor; Andal Nilayam; Moosrambagh Road; Dilsukhnagar; Above Tanishq Showroom; Hyderabad - 500060,Hyderabad
Raj Kumar Stationary,,17.464142000000,78.366425000000,Besides; Balaji Fresh,Plot no:2-41/15.shop No 3; 8th Battalion Road; Kondapur; Besides; Balaji Fresh; Hyderabad - 500084,Hyderabad
Amma Sai Stationery & Xerox Centre,,17.393208000000,78.496445000000,Opposite To Pashva Apparels,Shop No:#3-4-501/2; Opp SBI Bank; Barkatpura Chaman; Barkatpura; Opposite To Pashva Apparels; Hyderabad - 500027,Hyderabad
Srikanth BOOK WORLD,,17.369294157268,78.533000992684,NEAR ICICI BANK,SHOP 2; Sai nagar colony; Chaitanyapuri; NEAR ICICI BANK; Hyderabad - 500060,Hyderabad
Latha Stationery,,17.458850000000,78.401947000000,Beside Vijaya Super Market,Vivekananda nagar; Gayatri Nagar-Borabanda; Beside Vijaya Super Market; Hyderabad - 500018,Hyderabad
Sri Balaji Rainbow Stationery,,17.446820000000,78.511383000000,Opp Dena Bank,10-3-41; Lane Beside SHENOY Nursing Home; East Marredpally; Opp Dena Bank; Hyderabad - 500026,Hyderabad
SS STATIONERY XEROX FAX,,17.463762000000,78.366753000000,OPP :Balaji fresh,Kondapur x road signal; Kondapur; OPP :Balaji fresh; Hyderabad - 500081,Hyderabad
P.b Stationary And Xerox And Genral Store,,17.376232612894,78.540916694401,OPP KRISHNAVENI TALENT SCHOOL,Shop No#1; MARUTHI NAGAR; Kothapet; OPP KRISHNAVENI TALENT SCHOOL; Hyderabad - 500035,Hyderabad
Geetha Book Depot,,17.471455000000,78.567679000000,Opposite to DAE Colony,Plot Number: 6; Door No.1-7-182; South Kamalanagar; ECIL; Opposite to DAE Colony; Hyderabad - 500062,Hyderabad
Sri Renuka Ladies Emporium And Stationary,,17.372716000000,78.548334000000,Near Saibaba Temple,Alkapuri; Kothapet; Near Saibaba Temple; Hyderabad - 500035,Hyderabad
Sri Ram Stationary,,17.446655000000,78.477120000000,Near Indra Gandhi Statue,Plot No 304; Jagadishnagar Colony; Rasoolpura-Secunderabad; Near Indra Gandhi Statue; Hyderabad - 500003,Hyderabad
Laxmi Ganapathi Enterprises Ap Online,,17.457625000000,78.422417000000,Near to apna bazaar;kabhir nagar bus stop,Shopn no 1-77/1/b; Kabhir nagar; Moti Nagar; Near to apna bazaar; kabhir nagar bus stop; Hyderabad - 500018,Hyderabad
A P Book House,,17.394813000000,78.437566000000,,12-2-822/1/A; Retibowli Main Road; Mehdipatnam; Hyderabad; Mehdipatnam; Hyderabad - 500028,Hyderabad
G D Mobiles,,17.394962000000,78.432403000000,Oppsite  Sindhu Womens School,Shop No:1; Mehdipatnam; Mehdipatnam; Oppsite  Sindhu Womens School; Hyderabad - 500028,Hyderabad
A M R Enterprises,,17.387305000000,78.439697000000,Opp Mohammadia Majid,HNO: 12-2-493; Gudi Malkapur Road; Gudi Malkapur; Opp Mohammadia Majid; Hyderabad - 500028,Hyderabad
Super Stationers,+(91)-40-23318786,17.404667000000,78.454333000000,Adjecent Lane To Hotel Golconda,Ground Floor Kohinoor Apartments; Masab Tank; Masab Tank; Adjecent Lane To Hotel Golconda; Hyderabad - 500028,Hyderabad
Sri Venkateshwara Book House,+(91)-40-23322084,17.408959822916,78.456029891968,BESIDE ramleela grounds,10-1-153/6; Chintal basti; Khairatabad; BESIDE ramleela grounds; Hyderabad - 500004,Hyderabad
Al Madina Stationery,,17.400922000000,78.417525000000,Meraj Colony; Near Embassy High School; Opposite BSNL Exchange Office,Door No 9-4-61/A/2; Toli Chowki; Meraj Colony; Near Embassy High School; Opposite BSNL Exchange Office; Hyderabad - 500008,Hyderabad
A K Stationery Communications & Xerox,,17.413222000000,78.453605000000,Beside Saraswathi Vidya Mandir lane,Shop Number:6-3-597/2; Venkat Ramana Colony main road; Khairatabad; Beside Saraswathi Vidya Mandir lane; Hyderabad - 500004,Hyderabad
A-1 Stationary & Gift point,,17.406542000000,78.458488000000,Beside noori travels,6-2-278; 3rd shop; Ac guards; Khairatabad; Beside noori travels; Hyderabad - 500004,Hyderabad
Classic Gift & Novelties,,17.391944444444,78.457777777778,,Badi Masjid; New Mallepally; Hyderabad; Mallepally Main Road; Nampally; Hyderabad - 500001,Hyderabad
Safa Xerox & Stationary,,17.390840527778,78.457542416667,,Jamia Masjid; New Mallepally; Hyderabad; Mallepally Masjid Main Road; New Mallepally; Hyderabad - 500001,Hyderabad
Malika Book Stall,,17.380000000000,78.421167000000,Near Majestic Hospital,Main Road; Lunger House; Near Majestic Hospital; Hyderabad - 500008,Hyderabad
Sunrise Stationary & Books,,17.374715777778,78.443984972222,Near Patel Hotel,Jiyaguda Road; 2J Bus stop; Jiyaguda; Near Patel Hotel; Hyderabad - 500006,Hyderabad
Adarsh Eco Friendly Speciality Papers,+(91)-40-65974118,17.408141000000,78.465121000000,,No. 6-3-609/38; Bheemasena Sadan; Anand Nagar; Khairtabad; Khairatabad; Hyderabad - 500004,Hyderabad
Mumtaz Book Depot,+(91)-40-55974791,17.389938000000,78.465815000000,,5-7-559; Darga Yousufain Road; Nampally; Hyderabad - 500001,Hyderabad
Orion Office Supplies,+(91)-40-23390082; +(91)-40-23390083,17.423633000000,78.456795000000,Beside Saboo Towers; Jafer Ali Bagh,Door No 6-3-662/B; Kamala Nivas; Ground Floor; Jafar Ali bagh; Somajiguda; Beside Saboo Towers; Jafer Ali Bagh; Hyderabad - 500082,Hyderabad
u.n.x enterprises,,17.426456000000,78.454248000000,near nims,6-3-468; panjagutta muncipal market; panjagutta market; Panjagutta; near nims; Hyderabad - 500082,Hyderabad
Film World,,17.413088000000,78.407425000000,Near Baskin Robins,Plot No:14; Shop No. 2; Road Number 4; Film Nagar; Jubilee Hills; Near Baskin Robins; Hyderabad - 500033,Hyderabad
United Paper & Stationers,+(91)-40-23202254,17.388402000000,78.472278000000,Opposite Shanti Nivas Lodge,5-8-107/A; Station Road Nampally; Nampally; Opposite Shanti Nivas Lodge; Hyderabad - 500001,Hyderabad
Gayatri Stationary,+(91)-40-65447733,17.436987000000,78.445113000000,Near Huda Mythrivanam,Shop No 12 Annapurna Block Aditya Enclave; Ameerpet; Ameerpet; Near Huda Mythrivanam; Hyderabad - 500016,Hyderabad
Sri Laxmi Communications,,17.407750000000,78.477958000000,Opposite Sadhuram Eye Hospitals,Shop No. 1-2-9; Gagan Mahal Road; Gagan Mahal-Himayat Nagar; Opposite Sadhuram Eye Hospitals; Hyderabad - 500029,Hyderabad
Shanthanraj Enterprises,,17.440780000000,78.436050000000,near Bhramam Talent school,Door no 17/3; Vengal Rao Nagar; near Bhramam Talent school; Hyderabad - 500038,Hyderabad
Divya Enterprises,+(91)-40-24654115,17.380500000000,78.475500000000,Beside Vijay Bhavan Hotel,5-2-572; Risala Abdullah; Osman Shahi; Beside Vijay Bhavan Hotel; HYDERABAD - 500012,Hyderabad
Vardhman Computers & Stationery,+(91)-40-66366837; +(91)-40-24732368; +(91)-40-66566832; +(91)-40-24732369,17.379958000000,78.476180000000,Risala Abdulla,Shop No 5-2-483/484; Osmangunj; Risala Abdulla; Hyderabad - 500012,Hyderabad
Padmavathi Stationeries,,17.441128000000,78.425163000000,Near shirdi Medicals; near video lane,House number- 8-3-228/858; Rahmat Nagarcolonu; Yousufguda; Near shirdi Medicals; near video lane; Hyderabad - 500045,Hyderabad
Srinivasa Stationary Store,+(91)-40-24744404,17.379707000000,78.476558000000,Near Sunder Book Binding; Siddi Amber Bazar,Door No 15-6-571; Siddiamber Bazar; Near Sunder Book Binding; Siddi Amber Bazar; Hyderabad - 500012,Hyderabad
Parameshwari Fancy Store,,17.374166666667,78.474166666667,,Begum Bazar; Hyderabad; Main Road; Begum Bazar; Hyderabad - 500012,Hyderabad
Manish Stationery Mart,+(91)-40-24600559,17.375255900000,78.475235600000,,Osmangunj; Hyderabad - 500012,Hyderabad
Akash Xerox,,17.399630000000,78.485205000000,Opposite Lane To Telugu Academy,#3-6-205; Street No 16; Himayat Nagar; Opposite Lane To Telugu Academy; Hyderabad - 500029,Hyderabad
Runicha Stationers,+(91)-40-24735749; +(91)-40-66777018,17.382042000000,78.481727000000,,Osman Gunj; Koti; Hydrabad; N H Road; Koti; Hyderabad - 500095,Hyderabad
A. Mohammed Ali Stationers,+(91)-40-66719256,17.369166666667,78.475000000000,Opp Old Post Office,Shop No 22-7-11; Charminar Main Road; Pathar Gatti; Opp Old Post Office; Hyderabad - 500002,Hyderabad
Hamed    stationery,,17.357825000000,78.459337000000,Opposite Jupiter mission High School,Shop no:2; Main Road To Kamatipura; Osman Bagh; Opposite Jupiter mission High School; Hyderabad - 500064,Hyderabad
Advance Stationers,+(91)-40-24576625,17.369834700000,78.477330900000,Beside Shahdab Hotel,Plot No 22-7-231; City Civil Court Road; Chatta Bazar; Beside Shahdab Hotel; Hyderabad - 500002,Hyderabad
Sri Vinayaka Book Depot,,17.404663000000,78.489417000000,Opposite Syndicate Bank,#1-1-295; Street No:1; Ashok Nagar Road; Ashok Nagar; Opposite Syndicate Bank; Hyderabad - 500020,Hyderabad
New Vision Book Seller,,17.352555000000,78.462097000000,Opp Savera function hall,shop No: 287; chandulal baradari; Bahadurpura; Opp Savera function hall; Hyderabad - 500264,Hyderabad
Sri Srinivasa Type Writing & Computer Institute,,17.398126583333,78.494186388889,Opposite Axis Bank,3-5-926/6; Main Road; Himayat Nagar; Opposite Axis Bank; Hyderabad - 500029,Hyderabad
Vikas Communications,,17.439780000000,78.480613000000,Opp Lane of VLCC Slimming Centre,Shop No.31; Bapu Bagh Colony; P.G Road; Secunderabad; Opp Lane of VLCC Slimming Centre; Hyderabad - 500003,Hyderabad
Arihanth Stationary,,17.446463000000,78.476233000000,Beside lane of Police Lines,Plot no 1-19-4/5; Gun Bazar; Rasoolpura-Secunderabad; Beside lane of Police Lines; Hyderabad - 500003,Hyderabad
Leepakshi stationaries,,17.459761000000,78.424947000000,Near Nehru Park,SRT 761; Sanath Nagar; Near Nehru Park; Hyderabad - 500018,Hyderabad
Siddhartha Enterprises,,17.429783000000,78.493295000000,Bansilalpet; Near Bible House,Door No 25/A; Secunderabad; Bansilalpet; Near Bible House; Hyderabad - 500003,Hyderabad
Prince Books & Stationery,,17.348500000000,78.471500000000,Opposite NGCC Computer Institution,Shop No#23-5-392/1; Shah Ali Main Road; Shah Ali Banda; Opposite NGCC Computer Institution; Hyderabad - 500065,Hyderabad
Meenakshi Stationery Mart,+(91)-40-66337353,17.436387000000,78.492538000000,Opposite St Anthonys Girls High School; Rangrez Bazar,Shop No :3-3-264; Rangrez Bazar; General Bazar; Secunderabad; Opposite St Anthonys Girls High School; Rangrez Bazar; Hyderabad - 500003,Hyderabad
Shiva Sai Enterprises,+(91)-40-27811099,17.440845000000,78.489425000000,CTC Building,Shop No. 171; 1st Floor; Ctc; Parklane; Secunderabad; CTC Building; Hyderabad - 500003,Hyderabad
Universal Book Stores,,17.373977700000,78.499135400000,Near yashoda hospital,Shop  No 60; Jamuna Towers; Nalgonda X Roads; Malakpet; Near yashoda hospital; Hyderabad - 500036,Hyderabad
Vasavi Paper Mart,+(91)-40-27812131,17.436947000000,78.493797000000,Beside dargah,Door No-3-2-24; General Bazar; RP Road; Secunderabad; Beside dargah; Hyderabad - 500003,Hyderabad
Rama Murthy Book Depot,+(91)-40-66207008,17.436022000000,78.496138000000,Near Rajeshwari Theatre,Door No.7-1-706 & 707; Market Street; Monda Market; Secunderabad; Near Rajeshwari Theatre; Hyderabad - 500003,Hyderabad
Navkar Collections,+(91)-40-27701111,17.435277777778,78.496944444444,,Station Road; Secunderabad; Hyderabad - 500003,Hyderabad
Sri Datta Sai Stationery & Sports,,17.399127944444,78.507400500000,Opposite lane to Shankermutt Temple,#2-1-554; Street no:10; Nallakunta; Opposite lane to Shankermutt Temple; Hyderabad - 500044,Hyderabad
Latha Stationery,+(91)-40-69572382,17.409948333333,78.507041916667,Opposite to Annu Fashions,Door no. 1-9-18/A/B; Ramnagar Main Road; Ram Nagar; Opposite to Annu Fashions; Hyderabad - 500020,Hyderabad
Sri Balaji Book World,,17.451528000000,78.391725000000,Opposite Khana,Survey No: 853; Ayyappa Society Main Road; Madhapur; Opposite Khana; Hyderabad - 500081,Hyderabad
Raja Agencies,,17.403583500000,78.508476250000,opposite to shankurmut temple,Shop No 5; osmania university road; Nallakunta; opposite to shankurmut temple; Hyderabad - 500044,Hyderabad
Central Bok Shop & Stationery,,17.375886000000,78.509989000000,Opposite: Rajeshwari Nursing Home,Hayath Nagar Main Road; Hayat Nagar; Opposite: Rajeshwari Nursing Home; Hyderabad - 500036,Hyderabad
Laxminarayan & Company,,17.445274697547,78.499908484841,Near The Secunderabad Public School ;YWCA,Shop No.1; VVS Complex; West Marredpally Main Road; West Marredpally; Near The Secunderabad Public School; YWCA; Hyderabad - 500026,Hyderabad
Himalaya Pack & Stationery,+(91)-40-23070157,17.475450000000,78.426842000000,Prasanthi nagar,Shop no 5; Sony business complex prasanthi nagar; Kukatpally; Prasanthi nagar; Hyderabad - 500072,Hyderabad
Yadav Stationery,,17.388370000000,78.516425000000,Opp Ploice Station,Door. No 2-3-64/17/A; Cpl Road; Amberpet; Opp Ploice Station; Hyderabad - 500013,Hyderabad
Swathi Book Centre & Xerox,,17.386750000000,78.516312000000,Thirumala Nagar; Opposite Mro Office,H.no. 105: 2-3-703/1/A; Cpl Road; Amberpet; Thirumala Nagar; Opposite Mro Office; Hyderabad - 500013,Hyderabad
Krishna Sai Electricals Mobile Point & Stationary,,17.420042027778,78.516670222222,Near MGM Bakery,H.No:12-11-727; Kousar Masjid Road; Warasiguda; Near MGM Bakery; Hyderabad - 500061,Hyderabad
Sai Krishna Graphics,+(91)-40-23001057,17.437488000000,78.365770000000,Beside HP Petrol Bunk,Plot No. 8; Shop No. 1; Gachibowli X Road; Gachibowli; Beside HP Petrol Bunk; Hyderabad - 500032,Hyderabad
Shri Manikanta Xerox & Stationery,,17.462362000000,78.491142000000,Diamond Point X Road; Staff Road,Plot No- 14; Shop No- 2 & 3; Wahab Nagar; Diamond Point-Sikh Village; Diamond Point X Road; Staff Road; Hyderabad - 500009,Hyderabad
Rata Stationery & Sports,,17.358866600000,78.509727000000,,Jaya Nagar-Saidabad; Hyderabad - 500059,Hyderabad
Central Books & Stationery,,17.352037000000,78.507722000000,Beside Big Bazar I S Sadan,shop No:102; Main Road; Vinay Nagar Colony Santosh Nagar; Santosh Nagar; Beside Big Bazar I S Sadan; Hyderabad - 500059,Hyderabad
Sri Sai Stationery,+(91)-40-67308902,17.471564000000,78.389638000000,3rd Building,Lig 291/1; Road No 2; Kukatpally Housing Board; 3rd Building; Hyderabad - 500085,Hyderabad
Sri Mahalakshmi Stamp Papers & Notary,,17.370653000000,78.520728000000,Near State Bank of Hyderabad; Beside TMC Showroom,Moosarambagh; Near State Bank of Hyderabad; Beside TMC Showroom; Hyderabad - 500036,Hyderabad
Rangoli Stationary & General,+(91)-40-66634899,17.369430000000,78.520928000000,opposite IKON Hospital,#16-11-741/c/1/2; shalivahana nagar Main Road; Dilsukhnagar; opposite IKON Hospital; Hyderabad - 500060,Hyderabad
Nandini Books Centre,,17.445970000000,78.513695000000,Near Sri Chaitanya School,Shop No.4; H.No.10-3-32/9/92; Addagutta; East Marredpally; Near Sri Chaitanya School; Hyderabad - 500026,Hyderabad
S.K Traders,+(91)-40-65298488,17.483095000000,78.412720000000,Near Pragathi degree college; opposite to BJP party office line,Shop No. 3; House No#12-6-2/3.; Vivek Nagar Kukatpally; Kukatpally; Near Pragathi degree college; opposite to BJP party office line; Hyderabad - 500072,Hyderabad
Students Xeror Play Station Games,+(91)-40-40128730,17.483225000000,78.412330000000,Near toNarayana school; Opp to BJP Office,Shop number#  34/A; Vivek Nager colony; Kukatpally; Near toNarayana school; Opp to BJP Office; Hyderabad - 500072,Hyderabad
Sri Sai Stationary & Book Depot,+(91)-40-66844950,17.366920000000,78.521112000000,Opp Scholars Degree College ; Beside Naveena Stationery Mart,#16-11-659/1; Gaddinnaram Main Road; Dilsukhnagar; Opp Scholars Degree College; Beside Naveena Stationery Mart; Hyderabad - 500060,Hyderabad
Tirumala sai stationery & Pen House,,17.366675000000,78.521012000000,Back side of ACE Academy,#16-11-740/3/8; Gaddiannaram X Road; Dilsukh Nagar; Back side of ACE Academy; Hyderabad - 500060,Hyderabad
Naga Laxmi Book Bank,,17.345622000000,78.507758000000,Opp Partha Dental; Arvind Eye Hospital,Shop No 2 MIHG 9; New Santosh Nagar Colony; Santosh Nagar; Opp Partha Dental; Arvind Eye Hospital; Hyderabad - 500059,Hyderabad
Maxcon Stationery & Book Shop,,17.366547000000,78.521195000000,Back side to ACE Academy; Opp Pragathi junior College,#16-11-740/3/8; Gaddiannaram X Road; Dilsukhnagar; Back side to ACE Academy; Opp Pragathi junior College; Hyderabad - 500060,Hyderabad
Vishal Stationers,,17.486502000000,78.449632000000,Near IDPL COLONY,Shop no.1; #1-23/4; Bala Nagar Main road; IDPL; Near IDPL COLONY; Hyderabad - 500037,Hyderabad
Ramdev Stationary & Xerox,,17.484730000000,78.413430000000,Shanthi Nagar; Near Bjp Office; Opposite E Seva,Shop No 5-3-75/2; Ramalayam Road; Kukatpally; Shanthi Nagar; Near Bjp Office; Opposite E Seva; Hyderabad - 500072,Hyderabad
Venu's Book Bank,,17.348072000000,78.516555000000,Opposite Sri Triveni high school; Beside Haindav junior College,H no 9-9-36; Main Road; Sagar road champapet; Champapet; Opposite Sri Triveni high school; Beside Haindav junior College; Hyderabad - 500079,Hyderabad
Punjab Stationary,,17.472733000000,78.499955000000,Ravi Colony; Opposite Sam Bakery,Plot No 114/1; Shop No 1; Ravi Colony-Trimulgherry; Ravi Colony; Opposite Sam Bakery; Hyderabad - 500015,Hyderabad
Sri Xerox,,17.469488000000,78.508688000000,Opp. Old SBI,Shop No. 1; Main Road; Pt Colony-Trimulgherry; Opp. Old SBI; Hyderabad - 500015,Hyderabad
Jyothi Stationery & Packers,,17.493936527778,78.412300083333,Opp to NRI College Near Sony Complex,Shop No 5-36/50; Prashanth Nagar; Kukatpally; Opp to NRI College Near Sony Complex; Hyderabad - 500072,Hyderabad
Bharathi Enterprises Stationary & Xerox,,17.487190222222,78.385589583333,Opp Anupama Hospital,kphb colony hitch city road; KPHB Colony; Opp Anupama Hospital; Hyderabad - 500085,Hyderabad
Priya stationery Store,,17.419725416667,78.541061388889,Opposite; Ambika jewellers;Apollo Pharmacy,House No : 1-4-73; Ground Floor; Shop No : 2.; Street no:8; vasanth vihaar colony; Habsiguda; Opposite; Ambika jewellers; Apollo Pharmacy; Hyderabad - 500007,Hyderabad
Jai Mayuri Stationery,,17.495529000000,78.403512000000,Sai Baba Temple Lane,Shop Number. 7; Sai Laxmi Commercial Complex; Bhagya Nagar Colony; Bhagya Nagar Colony Kukatpally; Sai Baba Temple Lane; Hyderabad - 500072,Hyderabad
Swini Surf Net,,17.419376361111,78.541419972222,Near Habsiguda Cross Road; Beside lane to green bawarchi,Shop No. 2; # 1-17; Main Road; Habsiguda; Near Habsiguda Cross Road; Beside lane to green bawarchi; Hyderabad - 500007,Hyderabad
Ramdev Stationary & Gifts,,17.496925000000,78.407067000000,Opp hanuman temple,Plot no-79 & 80; pipe line road; Kukatpally; Opp hanuman temple; Hyderabad - 500072,Hyderabad
Prem Stastinoary & Sports,,17.496087374182,78.404114479272,Opp To Ram Reddy Chicken Market,Shop No 2; Bhagaya nagar Colony; Kukatpally; Opp To Ram Reddy Chicken Market; Hyderabad - 500072,Hyderabad
Sri Venkata SAI Stationery & Books,+(91)-40-69548687,17.495555555556,78.395555555556,Near jntu,D.R. Colony Phase-1; Main Road; Kukatpally; Near jntu; Hyderabad - 500072,Hyderabad
Apple Gift Gallery,,17.355708000000,78.535972000000,Beside Andhra Bank; Venkateswara Colony,G-3 Royal E Maralt Building; Saroor Nagar; Saroor Nagar; Beside Andhra Bank; Venkateswara Colony; Hyderabad - 500035,Hyderabad
KGN Xerox Center,,17.480955000000,78.361695000000,Near bridge,Shop No 3-28; Aditya nagar; New Hafeezpet; Near bridge; Hyderabad - 500049,Hyderabad
Padmavathi Stationery & Sports,+(91)-40-33704666,17.505178000000,78.475630000000,Beside Govt High School,Shop No 5-16; A.R.R. Complex; Kompally; Hyderabad; Suchitra Cross Road; Beside Govt High School; Hyderabad - 500067,Hyderabad
Sri SAI Ram Printers And stationery,,17.367295000000,78.550667000000,Aandra Bank ATM,Plot no: B7; Road no 5; Alkapuri-Kothapet; Aandra Bank ATM; Hyderabad - 500035,Hyderabad
Yashoda Stationary & Book Stall,+(91)-40-27179713,17.434674326709,78.552889823914,Near Bus Stop HMT Nagar,Shop No 1-11/A; Main Road; Nacharam; Near Bus Stop HMT Nagar; Hyderabad - 500076,Hyderabad
K M Enterprises,,17.518520000000,78.442420000000,Inside Prajaya Apartments,Block no.8; shop no.1; Kompally road; Jeedimetla; Inside Prajaya Apartments; Hyderabad - 500055,Hyderabad
Shree Krupa Stationery & General Stores,,17.491517000000,78.351845000000,OPP:more line road,Hno:2-214; Allwyn colony x road; indrareddy nagar; Miyapur; OPP:more line road; Hyderabad - 500049,Hyderabad
Sri Venkateshwara Stationary,,17.416153000000,78.565583000000,Near Srinivasa heights,Plot no.285; Adarsh Nagar; Chiluka Nagar-Uppal; Near Srinivasa heights; Hyderabad - 500039,Hyderabad
Gayathri Enterprises Xerox World,,17.495388000000,78.345153000000,Besides St. Ann,Shop No: G1; Vijaya Krishna Residency; Miyapur; Madinaguda Main Road; Madinaguda; Besides St. Ann; Hyderabad - 500049,Hyderabad
Jai Sai book house and stationery,,17.493142000000,78.327728000000,Near Rajiv gandhi statue,House no 6-94/17/2; Huda colony; Chanda Nagar; Near Rajiv gandhi statue; Hyderabad - 500050,Hyderabad
Venkateswara Stationary & Xerox,,17.340500000000,78.571833000000,Opp. M E Reddy gardens,Plot; Mansoorabad; Vanasthalipuram; Opp. M E Reddy gardens; Hyderabad - 500070,Hyderabad
Sri Sai nandini Enter,,17.498773000000,78.331149000000,Opp Bharath Petrol Bunk,Shop No. 1; Chandanagar Main Road; Chanda Nagar; Opp Bharath Petrol Bunk; Hyderabad - 500050,Hyderabad
Sri Sai Tirumala Books & Guides,,17.320628000000,78.560762000000,near x road; Opp Spring Dales School,shop  No 7-85/1; Ground Floor; Kan Reddy Complex; Nagarjuna Sagar Road; Santosh Nagar; B N Reddy Nagar; near x road; Opp Spring Dales School; Hyderabad - 500070,Hyderabad
Sonu Stationery & Book Point,,17.320711164712,78.562379068612,Opp SBh bank,B.N. Redddy Nagar; Vanasthalipuram; Hyderabad; Vanasthalipuram Road; Vanasthalipuram; Opp SBh bank; Hyderabad - 500070,Hyderabad
S V Book Stall & Stationery,,17.494137000000,78.321870000000,Behind Vijetha Super Market,Shop No 5-141; Manjeera Road; Chanda Nagar; Behind Vijetha Super Market; Hyderabad - 500050,Hyderabad
S V Book Stall,+(91)-40-23032161,17.494166666667,78.321944444444,Opposite to anu pharma,Shop no 5-141; Main Road; Chanda Nagar; Opposite to anu pharma; Hyderabad - 500050,Hyderabad
Sri Vidya Book Depot Stationery,,17.479000000000,78.574333000000,Near Kushaiguda bus stop;opp vikranth wines,# 1-10-24; Kushaiguda main road; Kushaiguda; Near Kushaiguda bus stop; opp vikranth wines; Hyderabad - 500062,Hyderabad
Lalitha Stationary,,17.195360000000,78.648101000000,Opposite Government School,Ibrahimpatnam; Opposite Government School; Rangareddy - 501506,Hyderabad
Rahul Enterprises,+(91)-40-24613826,17.373781000000,78.473618000000,Near K K Complex,Door No 15-8-420/4; Begum Bazar; Near K K Complex; Hyderabad - 500012,Hyderabad
Nandi Stationery & General Store,,17.439667000000,78.493500000000,Opp to Manju Theatre,3-1-199; Somasundram Street; Secunderabad; Opp to Manju Theatre; Hyderabad - 500003,Hyderabad
Kitsons Stationery Store,+(91)-40-64645689; +(91)-40-65545689; +(91)-40-65455689,17.435903000000,78.341696000000,gachibowli flyover,telcomnagar; Gachibowli; gachibowli flyover; Hyderabad - 500032,Hyderabad
Kidzy,,17.512646494450,78.480144711284,Near ZEE Dhaba & masjid,Shop no:04/016/3NR; Kompally Road; Jeedimetla Village; Near ZEE Dhaba & masjid; Hyderabad - 500055,Hyderabad
Narender Stationers,+(91)-40-24741937; +(91)-40-24617268,17.380138888889,78.474895833333,,Osman Gunj; Koti; Hyderabad; Andhra Pradesh; Nizam Sahi Road; Koti; Hyderabad - 500095,Hyderabad
Khatri Trading Co,+(91)-40-24731138; +(91)-40-30721138; +(91)-40-24733961,17.380868055556,78.475416666667,Seena bakery,Osman Gunj; Hyderabad; Risala Abdulla; Koti; Seena bakery; Hyderabad - 500012,Hyderabad
Apoorva xerox  & stationary,,17.408153000000,78.491433000000,Near Abhishrey Hostel,SRT : 331 ground floor; Street No: 5  rtc crossroads; Ashok Nagar; Near Abhishrey Hostel; Hyderabad - 500020,Hyderabad
Mesa Ram Dewasi,+(91)-40-66710444,17.438500000000,78.490000000000,Khandoji Bazar,1-5-115; Genral bazar; Secunderabad; Khandoji Bazar; Hyderabad - 500003,Hyderabad
Ganesh Tent House,+(91)-40-27758584,17.460833333333,78.475833333333,,Vithal Nagar; New Bowenpally; Secunderabad; Andhra Pradesh; Main Road; Bowenpally; Hyderabad - 500011,Hyderabad
Sri Durga Stationary & Books Stall,+(91)-40-27791299,17.479058000000,78.492997000000,Beside Manasarovar Heights,Plot No- 27; Prem Sagar Enclave; Trimulgherry; Beside Manasarovar Heights; Hyderabad - 500015,Hyderabad
Evening Bazar,,17.499313000000,78.404442000000,Near Sathavahana School; Jaya Nagar,Plot No 31/a; Door No 2-22/196/C; Sathavahana Nagar-Kukatpally; Near Sathavahana School; Jaya Nagar; Hyderabad - 500072,Hyderabad
Lucky Xerox & Stationary,,17.456771588680,78.547301180293,Beside axis bank,Shop-33; Nmdc colony anand bagh east; Malkajgiri; Beside axis bank; Hyderabad - 500047,Hyderabad
Sangham Bookstall,,17.277465000000,78.497300000000,Badangpet Road,Balapur X Roads; Balapur X Road; Badangpet Road; Hyderabad - 500005,Hyderabad
Vijaya Laxmi BookDepot,+(91)-40-27123797,17.473675000000,78.570222000000,ECIL X Road,Shop No 7-220/2; Kamalanagar; ECIL; ECIL X Road; Hyderabad - 500062,Hyderabad
Ambica Ladies Corner,+(91)-8455-242727,17.530555555556,78.262500000000,,Chaithanya Nagar; Patancheru; Hyderabad; Main Road; Patancheru; Hyderabad - 502319,Hyderabad
Yaamini Stationary & Books,,17.395111083333,78.439102166667,Opp Pillar No.84,Shop No.13-6-434/C/138/7/1; Maruthi Nagar; Ring Road; Mehdipatnam; Opp Pillar No.84; Hyderabad - 500028,Hyderabad
Perfect Book Shoppee,,17.394552400000,78.438386900000,Pillar No 14,Manzil Chamber; Mehdipatnam; Pillar No 14; Hyderabad - 500028,Hyderabad
Calcutta Tea & Stationery,,17.398687000000,78.445137000000,Opp S D I  Hospital,Door no 10-2-274/B/2; Humayun nagar; Mehdipatnam; Opp S D I  Hospital; Hyderabad - 500028,Hyderabad
Global Book World,,17.395518026224,78.432712744548,Near to pillar no 35,Plot no. 6; 12-2-784/b/2/3; Rethibowli main road; Mehdipatnam; Near to pillar no 35; Hyderabad - 500028,Hyderabad
Book Corner And Stationery,,17.399167000000,78.445500000000,Opposite Cresent Hospital Lane,shop no.10-4-44/4 Hi-; Firstlancer Road; Sarojini To First Lancer Road; Humayun Nagar; Opposite Cresent Hospital Lane; Hyderabad - 500028,Hyderabad
Hari Krishna Stationery & Xerox,,17.393047000000,78.437928000000,Opp St.Ann,10-2-283/A/4; Santosh Nagar Colony; Mehdipatnam; Opp St.Ann; Hyderabad - 500028,Hyderabad
Royal Xerox & Stationary,,17.393105000000,78.438147000000,Opposite St Ann,HNO: 12-2-823/A/1/2/B; Santosh Nagar colony; Mehdipatnam; Opposite St Ann; Hyderabad - 500028,Hyderabad
A1 Stationary And Book Depot,+(91)-40-65130550,17.404086976328,78.445956939904,Near Nashaman Hotel,Shop No:10-5-8/9/8; Frist Lancer Road; Ahmed Nagar; Near Nashaman Hotel; Hyderabad - 500028,Hyderabad
Madina Book Centre & Stationary,,17.404043264703,78.446085266842,Near Nasheman Hotel,Shop   no:10-4-771/82/C/9/12; Ahmed Nagar; Firstlancer road lane; Masab Tank; Near Nasheman Hotel; Hyderabad - 500028,Hyderabad
Sri Sai Stationary,,17.393795000000,78.443297000000,Opposite Mahesh Bank,HNO : 10-3-3/41; Near Mahendi Gate; Mehdipatnam; Opposite Mahesh Bank; Hyderabad - 500028,Hyderabad
Scholar and stationery,,17.391636000000,78.440065000000,Amba Cinema,12-2-827/2; Gudi Malkapur Road; Mehdipatnam; Amba Cinema; Hyderabad - 500028,Hyderabad
M A Stationery & Xerox,,17.391897000000,78.441722000000,Near Pillar No:92,Shop No:1; Mehdipatnam; Moghal Nagar; Near Pillar No:92; Hyderabad - 500028,Hyderabad
Rahmath Stationary & Gifts,,17.391897000000,78.441722000000,Jirrah road,Shop no-2; Tappachabutra; Asif Nagar; Jirrah road; Hyderabad - 500028,Hyderabad
Modern Stationery& Book Point,,17.391897000000,78.441722000000,beside tulsi high school,Shop no 10-4-771/16 shop 3; Masab Tank; Masab Tank; beside tulsi high school; Hyderabad - 500028,Hyderabad
Madeena Stationary,,17.391897000000,78.441722000000,Near First Lancer,Ahmed Nagar; Mehdipatnam; Near First Lancer; Hyderabad - 500028,Hyderabad
Rahul Books and Stationery,,17.391897000000,78.441722000000,Near Saibaba temple,12-2-422/3/B; Gudimalakpur; Mehdipatnam; Near Saibaba temple; Hyderabad - 500028,Hyderabad
N S Stationery General Items & Toys,,17.391897000000,78.441722000000,Near fr roch memorial school,Ac guards; Masab Tank; Near fr roch memorial school; Hyderabad - 500028,Hyderabad
New General Stores,,17.391671000000,78.441353000000,Opp Andhra Bank; Beside Bank Of Baroda,Shop No:1; Gudimalkapur Road; Mehdipatnam; Opp Andhra Bank; Beside Bank Of Baroda; Hyderabad - 500028,Hyderabad
KGN Stationery,,17.402692940102,78.447881760149,Near Chacha Neharu Park,10-4-771/82/2; Owsaipura; Masab Tank; Near Chacha Neharu Park; Hyderabad - 500028,Hyderabad
Sri Sai Surya Stationery,,17.401252000000,78.427674000000,Near Kendriya Vidyalaya School,Hashim Nagar; Langer House; Near Kendriya Vidyalaya School; Hyderabad - 500008,Hyderabad
Advance Book Center Stationery,+(91)-40-65125425,17.399320000000,78.448479000000,Opp.Post Office;,Asif Nagar; Mehdipatnam; Opp.Post Office; Hyderabad - 500028,Hyderabad
Sri Satya Sai Fancy & Stationary Stores,,17.409308000000,78.431855000000,Beside S V R High School,8-2-684/116; Road No 12 NBT Nagar; Inside Khaman; near sri sai ram high school; Banjara Hills; Beside S V R High School; Hyderabad - 500034,Hyderabad
Raj Stationery,,17.392551416667,78.430900555556,Opp Lane To Pillar No.68,Shop No:2; Krishna Balaji Appartment; Balaji Nagar; Gudi Malkapur; Opp Lane To Pillar No.68; Hyderabad - 500028,Hyderabad
Scholars Stationary,+(91)-40-66772935,17.390797011314,78.442929151685,Beside L.B College; Oppsite SBH ATM,House no.  12-2-827/2/D; Gudimalakapur Road; Mehdipatnam; Beside L.B College; Oppsite SBH ATM; Hyderabad - 500028,Hyderabad
Ap book centre,,17.392792000000,78.446197000000,Op ms creative school,Asif nagar main road; Mehdipatnam; Op ms creative school; Hyderabad - 500028,Hyderabad
Veerabhadra Stationary & Internet,,17.413937000000,78.439688000000,Opposite sri saraswathi school,Road no-11; uday nagar colony; Banjara Hills; Opposite sri saraswathi school; Hyderabad - 500034,Hyderabad
J K Internet & Stationery,,17.413733000000,78.441100000000,Near Sai Baba Temple,8-2-601/g; Gowri Shanker Temple; Banjara Hills; Near Sai Baba Temple; Hyderabad - 500034,Hyderabad
Sri Sai Srinivasa Stationary,,17.414192000000,78.438903000000,Opposite: Lakshmi Nilayam,Shop no: 2; Road no: 11; Gs Nagar-Banjara Hills; Opposite: Lakshmi Nilayam; Hyderabad - 500034,Hyderabad
Apex Stationery,,17.403850000000,78.452020000000,Opposite ahmedia hotel,First lancer road; Masab Tank; Opposite ahmedia hotel; Hyderabad - 500028,Hyderabad
J.K. Communications & Stationary,,17.414360027778,78.440811138889,Beside Sai Baba Temple,Shop No. 8-2-613/75/N/354; Gowri Shankar Colony; Road No : 11; Banjara Hills; Beside Sai Baba Temple; Hyderabad - 500034,Hyderabad
Sri Rahul Books And Ststioners,,17.386878944444,78.439910888889,NEAR SAI BABA TEMPLE,SHOP NO:12-2-422/3/B; USHAODAYA COLONY; Gudi Malkapur; NEAR SAI BABA TEMPLE; Hyderabad - 500028,Hyderabad
A K Stationery,,17.389972000000,78.447272000000,Beside bahar cafe,shop no -; Zeba bagh; Asif Nagar; Beside bahar cafe; Hyderabad - 500028,Hyderabad
Modern Stationery & Xerox,,17.392897000000,78.450050000000,Near Anjuman,Shop No:1; Vijay Nagar Colony; Vijay Nagar Colony; Near Anjuman; Hyderabad - 500057,Hyderabad
Sri Sai Stationery,,17.414850222222,78.438964833333,Oppsite MCH Ground,Shop No:8-2-601/G/266; Road No.11; Banjara Hills; Oppsite MCH Ground; Hyderabad - 500034,Hyderabad
MM Stationery,,17.387313000000,78.443122000000,Opposite Shahi Masjid,Shop Number-2; Murad Nagar; Asif Nagar; Opposite Shahi Masjid; Hyderabad - 500028,Hyderabad
Office Mart Stationaries,+(91)-40-66106160,17.409637000000,78.450142000000,Near Bekernawala Sweets; Opp Bata Showroom,Shop Number 1; Raod No 1; Banjara Hills; Near Bekernawala Sweets; Opp Bata Showroom; Hyderabad - 500034,Hyderabad
Officemart Stationary,+(91)-40-40210801,17.409745000000,78.450220000000,Beside Sakshi office,Ground Floor; Prashanti Nilayam Building; Road No: 1; Banjara Hills; Beside Sakshi office; Hyderabad - 500034,Hyderabad
Swastik Stationary,+(91)-40-40159621,17.415700000000,78.440330000000,,No. 8 - 3 - 903/F/Shop -1; Eureka Court Apartments; Ameerpet; Nagarjunanagar; Hyderabad; Nagarjuna Nagar; Hyderabad - 500034,Hyderabad
Al Kareem Stationers,,17.395333000000,78.422905000000,Opposite salarjung masjid,Shop no 2; Salarjung colony; Toli Chowki; Opposite salarjung masjid; Hyderabad - 500008,Hyderabad
Moon Book House,+(91)-40-65555715,17.396538000000,78.453408000000,Near St. Marry High School,shop no # 1-138/2RT; Vjay Nagar Colony; Vijay Nagar Colony; Near St. Marry High School; Hyderabad - 500057,Hyderabad
Dhriti Enterprise And  Stationary Point,,17.403894444444,78.453605555556,Beside golkanda hotel,Shop number c-6 10-1-126; Ashoka plaza; Masab Tank; Beside golkanda hotel; Hyderabad - 500028,Hyderabad
Jai Hanuman Stationary,,17.416328000000,78.438378000000,Near Govt School,Shop no: 2; NBT Nagar; road no-12; NBT Nagar-Banjara Hills; Near Govt School; Hyderabad - 500034,Hyderabad
Krishnaveni Stationery,,17.416328000000,78.438378000000,Near saibaba temple,Uday nagar; road no-11; Banjara Hills; Near saibaba temple; Hyderabad - 500034,Hyderabad
Royal Xerox & Stationery,,17.395714000000,78.453582000000,Near Al Saba Hotel; Opp Safa High School,Shop No:1; Mallepally Road; Vijay Nagar Colony; Near Al Saba Hotel; Opp Safa High School; Hyderabad - 500057,Hyderabad
SR ID Solutions,,17.384833000000,78.439667000000,Near Kranthi High School,Park View Residency; Mehdipatnam; Near Kranthi High School; Hyderabad - 500028,Hyderabad
Sri Balaji Stationery,,17.395500000000,78.453833000000,Backside Andhra Bank,Shop no 120/2rt; Near Vijay Nagar Colony Library; Vijay Nagar Colony; Backside Andhra Bank; Hyderabad - 500057,Hyderabad
Life Stationery,,17.416775000000,78.438538000000,Infront of Diamond silk house;Zehra Nagar,Shop No 8-2-603/28; Road No 10; Banjara Hills; Infront of Diamond silk house; Zehra Nagar; Hyderabad - 500034,Hyderabad
Moon Book House,,17.395037500000,78.453928000000,Opposite Sentmary School,1-138 2RT; Vijay Nagar Colony; Opposite Sentmary School; Hyderabad - 500057,Hyderabad
Royal Xerox & Stationery,,17.395037500000,78.453928000000,Opp. Safa high school,Shop no 1; Mallepally road; Vijay Nagar Colony; Opp. Safa high school; Hyderabad - 500057,Hyderabad
Moon Book Corner,,17.394976224519,78.452736135028,Near Jio Digital Shop,Vijay Nagar Colony; Near Jio Digital Shop; Hyderabad - 500057,Hyderabad
Bhavani Stationery,,17.408542000000,78.453117000000,Opp. Sangeet medical hall,Chintal basti road; Chintal Basti; Opp. Sangeet medical hall; Hyderabad - 500004,Hyderabad
New Madina Stationary And Kirana General Store,,17.395247000000,78.454820000000,Opp to Marzan Hotel,Shop No:1; Vijay Nagar Colony; Vijay Nagar Colony; Opp to Marzan Hotel; Hyderabad - 500057,Hyderabad
Sai Balaji Books Stationary & Xerox,,17.394108000000,78.454767000000,Near E Seva,Shop 13/3rt; Near Mandal Office; Vijay Nagar Colony; Near E Seva; Hyderabad - 500057,Hyderabad
Deccan Stationery,,17.403733000000,78.419838000000,Limra Hotel Lane; Beside Community Hall,9-4-11/1; Hakeempet; Toli Chowki; Limra Hotel Lane; Beside Community Hall; Hyderabad - 500008,Hyderabad
Tawakkal Stationery & Book Depot,,17.403978000000,78.419175000000,Beside Moghul Kirana store; near limra,Shop No:9-4-58/1a; Hakeempet; Toli Chowki; Beside Moghul Kirana store; near limra; Hyderabad - 500008,Hyderabad
Keerthi Xerox Stores,,17.407500000000,78.455500000000,Vijay Marie Nursing School,10-1-684; Veer nagar; Chintal Basti; Vijay Marie Nursing School; Hyderabad - 500004,Hyderabad
Sri Mallikarjuna Stationery,+(91)-40-65769438,17.389013799855,78.452382339238,Near Gandi Maisamma Temple,12-1-913; Asif Nagar; Asif Nagar; Near Gandi Maisamma Temple; Hyderabad - 500028,Hyderabad
AKFK Stationery & Tailoring Material,,17.406903000000,78.419670000000,Opposite bismillah hotel,Hakeempet; Toli Chowki; Opposite bismillah hotel; Hyderabad - 500008,Hyderabad
Elite Stationery,,17.403630000000,78.418695000000,Limra hotel lane,Plot no 9-4-57/g; hakeem pet; Miraj Colony-Toli Chowki; Limra hotel lane; Hyderabad - 500008,Hyderabad
M J Book Depot & Xerox,,17.406992000000,78.419687000000,sana hotel lane,Shop no.9-4-29/2/a; ground floor; Hakeempet road; Toli Chowki; sana hotel lane; Hyderabad - 500008,Hyderabad
A1 Stationery & General Store,,17.386945000000,78.450883000000,Dattatreya Colony,Shop No:1; Near Gems School; Near Krishnavi School; Asif Nagar; Dattatreya Colony; Hyderabad - 500028,Hyderabad
School Needs,+(91)-40-66445657,17.415441000000,78.450039000000,Beside Axis Bank,Banjara Elegant; Road No 1; Banjara Hills; Beside Axis Bank; Hyderabad - 500034,Hyderabad
Sri Vaishnavi Books & Mobile Centre,,17.384222027778,78.428199750000,Opp Pillar No:84,shop no1; Maruthi Nagar; Ring Road; Mehdipatnam; Opp Pillar No:84; Hyderabad - 500028,Hyderabad
Tawakkal Stationery,,17.406242000000,78.456887000000,Opposite nafeez plaza,Shop no-10-1-1134; Ac guards; Khairatabad; Opposite nafeez plaza; Hyderabad - 500004,Hyderabad
Student Needs stationery,,17.404658000000,78.457405000000,Opposite Holy Mary High school; near mahaveer hospital,Shop number- 10-1-875/1/a; A C Guards; Masab Tank; Opposite Holy Mary High school; near mahaveer hospital; Hyderabad - 500028,Hyderabad
Student Needs Stationery,,17.389447000000,78.453980000000,Opposite to State Bank ATM,Shop.No: 10-02-346/18; Asif Nagar main road; Asif Nagar; Opposite to State Bank ATM; Hyderabad - 500028,Hyderabad
Sri Venkateshwara Book House,+(91)-40-23322084,17.408855000000,78.455947000000,beside Apollo pharmacy,#10-1-253/6; chintal basti; Khairatabad; beside Apollo pharmacy; Hyderabad - 500004,Hyderabad
DECCAN book house,,17.401355000000,78.417908000000,beside Aman hospital lane,h.no.9-4-61/a/15/1; mairaj colony road; Miraj Colony-Toli Chowki; beside Aman hospital lane; Hyderabad - 500008,Hyderabad
Prince Books & Stationery,,17.392533000000,78.455978000000,Opp Loyola Primary School,Shop number-; Mallepally; New Mallepally; Opp Loyola Primary School; Hyderabad - 500001,Hyderabad
Prince Book And Stationery,,17.392307382135,78.456031722557,Opposite Loyola School,Door No. #11-3-938/2; vijay nagar colony; Vijay Nagar Colony; Opposite Loyola School; Hyderabad - 500057,Hyderabad
Ashok General Store,,17.390872000000,78.455330000000,Near Priya Theatre,11-3-934/1/1; Main road; Mallepally; Near Priya Theatre; Hyderabad - 500001,Hyderabad
A K Stationary,,17.413251665437,78.453574748783,NEAR st.christophers high scholl,6-3-597/2; ground floor; ak residency; Venkatramana colony; Khairatabad; NEAR st.christophers high scholl; Hyderabad - 500004,Hyderabad
al madina stationery,,17.400838000000,78.417488000000,opposite rahmath dairy farm,# 9-4-61/a/2; mairaj colony; Miraj Colony-Toli Chowki; opposite rahmath dairy farm; Hyderabad - 500008,Hyderabad
Madina Book Depo,,17.398358000000,78.417555000000,Opp Kaba Hosiptal,9-4-87/74/a; Toli Chowki; Toli Chowki; Opp Kaba Hosiptal; Hyderabad - 500008,Hyderabad
Madina Book Depot & Stationary,,17.398350596366,78.417534725433,Near to flyover,Plot no. 9-4-87/74/a; Qutub Shahi Tombs Road; Toli Chowki; Near to flyover; Hyderabad - 500008,Hyderabad
SSL Stationery,,17.390253843877,78.455359725853,Opp priya theatre,Door No. #11-3-930/5; Mallepally main road; Mallepally; Opp priya theatre; Hyderabad - 500001,Hyderabad
Amit Stationary,,17.418500000000,78.446667000000,Near syndicate bank,Shop no2; Road no 14; Banjara Hills; Near syndicate bank; Hyderabad - 500034,Hyderabad
Tirumala traders,,17.413558000000,78.453872000000,near sangam stores,6-3-598/5 venkataramana Colony; Khairatabad; near sangam stores; Hyderabad - 500004,Hyderabad
Om Sai Ram Stationary & Book Point,,17.380833000000,78.440167000000,Near Jingle Bell Pre School,Door number -12-2-417/82; Sharada Nagar; Gudi Malkapur; Near Jingle Bell Pre School; Hyderabad - 500028,Hyderabad
AL FALAH STATIONERY,,17.403630000000,78.417075000000,opp axis bank atm,no:8-1-396/a/2; jublee hills; Ias Officers Colony-Hakimpet; opp axis bank atm; Hyderabad - 500008,Hyderabad
Heena Stationary,,17.392862000000,78.457262000000,Near badi masjid,Shop no 11-3-848/2; Opp lane riyan Hotel; New Mallepally; Near badi masjid; Hyderabad - 500001,Hyderabad
Al Falah stationery,,17.403662000000,78.417062000000,Near limra hotel,8-1-396/a/2-1; Ias colony; Toli Chowki; Near limra hotel; Hyderabad - 500008,Hyderabad
A R Book Traders,,17.390189483846,78.455879817183,Near Anwar Ul Loom College Girls Gate,Door No. # 11-3-923/1; Mallepally; Mallepally; Near Anwar Ul Loom College Girls Gate; Hyderabad - 500001,Hyderabad
Delight Stationary & Book Depot,,17.390137000000,78.455933000000,Near prince hotel,11-3-923/1; Main road; Mallepally; Near prince hotel; Hyderabad - 500001,Hyderabad
Mahalaxmi Stationary,,17.382408000000,78.428213000000,Oppsite Pillar Number:84,Shop Number13-6-434/C/124; Maruthi Nagar; Ring Road; Mehdipatnam; Oppsite Pillar Number:84; Hyderabad - 500028,Hyderabad
Beacon Book Point,,17.381944376991,78.429181901811,Opp Pillar No: 85,Shop No 5; Maruthi Nagar ring road; Mehdipatnam; Opp Pillar No: 85; Hyderabad - 500028,Hyderabad
Paradise Book Depot & Stationery,,17.392100000000,78.457542000000,Beside Post Office,Badi Masjid; New Mallepally; Beside Post Office; Hyderabad - 500001,Hyderabad
Sri srinavasa,,17.380128000000,78.439537000000,Beside Andhra bank lane,Sharada nagar; Tallagadda; Beside Andhra bank lane; Hyderabad - 500028,Hyderabad
Sri Vinayaka Stationery & Xerox,,17.386811700000,78.453880000000,Near Krishnaveni School,Shop No:1; Dattatreya Colony; Asif Nagar; Near Krishnaveni School; Hyderabad - 500028,Hyderabad
Sri Kavya Stationery,,17.420320000000,78.430558000000,Near busstop; opp Joushua School,8-2-293/103; Nandi nagar; Banjara Hills; Near busstop; opp Joushua School; Hyderabad - 500034,Hyderabad
Excellent Stationary & General Store,,17.390833333333,78.457222222222,,Jamia Masjid; New Mallepally; Hyderabad; Mallepally Masjid Main Road; Nampally; Hyderabad - 500001,Hyderabad
Saba Perfumes & Caps,,17.392222222222,78.458055555556,,Badi Masjid; New Mallepally; Hyderabad; Mallepally Main Road; Nampally; Hyderabad - 500001,Hyderabad
Sri Sai Xerox,,17.421497333333,78.434326166667,Near Nandi Nagar Bus Stop,Road no.14; Banjara Hills; Near Nandi Nagar Bus Stop; Hyderabad - 500034,Hyderabad
Golden General And Stationary Store,,17.390167000000,78.457167000000,Opp anwar uloom college,Jamia Masjid; New Mallepally; Hyderabad; Mallepally Masjid Main Road; Nampally; Opp anwar uloom college; Hyderabad - 500001,Hyderabad
Sai Pavan Enterprises,,17.387667000000,78.456000000000,Near Jet cafe,Shop no.12-1-945/b; Old mallepally; Mallepally; Near Jet cafe; Hyderabad - 500001,Hyderabad
Sai pawan enterprises,+(91)-40-69992215,17.387658000000,78.456245000000,Opp jet cafe,Shop no12-1-945; Old mallepally; Mallepally; Opp jet cafe; Hyderabad - 500001,Hyderabad
A To Z Beauty Singar,,17.391944444444,78.458888888889,,Jamia Masjid; New Mallepally; Hyderabad; Mallepally Main Road; Nampally; Hyderabad - 500001,Hyderabad
S A Stationary,,17.391000000000,78.416572000000,beside reliance school,#9-3-123; mohammedi lines; Toli Chowki; beside reliance school; Hyderabad - 500008,Hyderabad
Al Falaah Stationery and sports,,17.397520055556,78.414436333333,Beside success school,Shop no.8-1-21/14; seven tomb road; samata colony; Toli Chowki; Beside success school; Hyderabad - 500008,Hyderabad
Sai Ram Stationery,,17.408333000000,78.460333000000,Main Road,Shop No.59/B; Kushal Tower; Opposite T Kun Hyundai; Khairatabad; Main Road; Hyderabad - 500004,Hyderabad
Huda Stationery,+(91)-40-23249346,17.387939000000,78.457611000000,,11-2-779; Habeeb Nagar; Nampally; Hyderabad - 500001,Hyderabad
Deccan Stationary,,17.398775000000,78.414003000000,Near tolichowki x-rords; opposite apple hospital,Seven tombs road; Toli Chowki; Near tolichowki x-rords; opposite apple hospital; Hyderabad - 500008,Hyderabad
Hussaini And Sonstoys Stationery,,17.389285000000,78.458853000000,,Mallepally; Hyderabad - 500001,Hyderabad
Maruthi Stationary,,17.402418000000,78.461897000000,Opp Appolo pharmacy,10-1-631; Near Mata Mandir; Chintal Basti; Opp Appolo pharmacy; Hyderabad - 500004,Hyderabad
9mart services pvt ltd,,17.402418000000,78.461897000000,,Hyderabad - 500004,Hyderabad
Maruthi stationary,,17.402418000000,78.461897000000,Beside Icici atm,Chintal basti; Khairatabad; Beside Icici atm; Hyderabad - 500004,Hyderabad
Ab xerox center,,17.402418000000,78.461897000000,SBH Bank,6-3-609/135/1; Anand nagar street; Khairatabad; SBH Bank; Hyderabad - 500004,Hyderabad
Ganapika stationary,,17.402418000000,78.461897000000,Appolo medical shop,10-1-251; Chintal basthi; Khairatabad; Appolo medical shop; Hyderabad - 500004,Hyderabad
Vnox internet services,,17.402418000000,78.461897000000,Sai baba electricals,Venkataramana colony; Khairatabad; Sai baba electricals; Hyderabad - 500004,Hyderabad
Razzak Enterprises,,17.402418000000,78.461897000000,Opp. MNJ cancer Hospital,Bazarghat road; Red Hills; Opp. MNJ cancer Hospital; Hyderabad - 500004,Hyderabad
Sree maruthee stationary,,17.402418000000,78.461897000000,Sai diagnostic center,10-1631/1; Chintal basthi street; Khairatabad; Sai diagnostic center; Hyderabad - 500004,Hyderabad
Rukmini book center,,17.402418000000,78.461897000000,Dwaraka hotel,Lakadikapool center; Lakdi Ka Pool-Khairatabad; Dwaraka hotel; Hyderabad - 500004,Hyderabad
Sri Manikanta Book And Stationary,+(91)-40-23371823,17.409048674049,78.460652066667,Opp Shadan College,Dor No. #6-2-941/A/4; Khairtabad Man Road; Khairatabad; Opp Shadan College; Hyderabad - 500004,Hyderabad
Shiva Stationary,,17.418501000000,78.422203000000,,Raod No 71; Opp Jubli Hils High School; Jubilee Hills; Hyderabad - 500033,Hyderabad
Maruthi,+(91)-40-23303646,17.401157000000,78.462252000000,Near big hanuman temple,11-4-672; Lakdikapool; Near big hanuman temple; Hyderabad - 500004,Hyderabad
Flawless Xerox & Stationers,,17.401310973817,78.462456464840,Opposite Hanuman Temple,Door No 11-5-422/3; Niloufer Road; Lakdi Ka Pool-Khairatabad; Opposite Hanuman Temple; Hyderabad - 500004,Hyderabad
Khans Collection,,17.391804000000,78.460987000000,Habeb Nagar Lala,Munna Complex; Door No 11-3-608/7; Mallepally; Habeb Nagar Lala; Hyderabad - 500001,Hyderabad
Padmapriya Stationery,,17.385937000000,78.457537000000,Near noble talkies x road,Shop no 12-1-2/17; Mallepally road; Mallepally; Near noble talkies x road; Hyderabad - 500001,Hyderabad
Sagar Stationers,+(91)-40-66101133,17.410408000000,78.460786700000,Opposite Pavani Plaza,6-2-935; Khairathabad; Khairatabad; Opposite Pavani Plaza; Hyderabad - 500004,Hyderabad
M M Stationary,,17.396683000000,78.462662000000,near to himalaya hotel,11-4-762; niloufer hospital road; Bazarghat; near to himalaya hotel; Hyderabad - 500004,Hyderabad
Sagar Stationers,+(91)-40-66101133,17.410408000000,78.461005000000,Opposite pavani plaza,Hiuse number-6-2-935; ground floor; Khairata bad main road; Lakdi Ka Pool-Khairatabad; Opposite pavani plaza; Hyderabad - 500004,Hyderabad
National stationery,,17.396167000000,78.463000000000,Opp Himalaya Hotel,11-5-285/A; Redhills; Red Hills; Opp Himalaya Hotel; Hyderabad - 500004,Hyderabad
Zam Zam Stationary,,17.377500000000,78.430167000000,Near pillar no 99,Shop no 2; Attapur road; Mehdipatnam; Near pillar no 99; Hyderabad - 500028,Hyderabad
Global Stationery,,17.395965582707,78.463025931342,Beside hard blood bank,Door No. 11-5-266; Inderjit Apartment; Red Hills; Bazarghat; Beside hard blood bank; Hyderabad - 500004,Hyderabad
Shalimar  xerox & Stationary Point,,17.406272000000,78.462830000000,Opposite Collector Office,shop no #6-1-1063e/1; Lakdikapool Main Road; Lakdi Ka Pool-Khairatabad; Opposite Collector Office; Hyderabad - 500004,Hyderabad
Keerthana Stationary & Cool Drinks.,,17.409927779825,78.461752636431,Government high school,6-1-866; Market road; Khairatabad; Government high school; Hyderabad - 500004,Hyderabad
Mifzaal kirana & General Store & Stationery,,17.376092888889,78.433990472222,Near coca cola company,Moghal ka nala; Pillar No 102; Karwan; Near coca cola company; Hyderabad - 500006,Hyderabad
R k Stationery Shop,,17.407653000000,78.412742000000,Beside hussains clinic,# 9-4-57/7/d/8; ground floor; Paramount colony; Toli Chowki; Beside hussains clinic; Hyderabad - 500008,Hyderabad
Divya Stationary,,17.410775000000,78.461875000000,Near railway gate,6-1-546; Market road; Khairatabad; Near railway gate; Hyderabad - 500004,Hyderabad
Manusha Stationery & ladies tailor,,17.409972000000,78.462638000000,Near bada ganesh,Shop number-2; Khairatabad main road; Khairatabad; Near bada ganesh; Hyderabad - 500004,Hyderabad
4 Star Stationery,,17.406641000000,78.411472000000,Opposite al sami hotel,Shop no-5; ground floor; Paramount colony; Toli Chowki; Opposite al sami hotel; Hyderabad - 500008,Hyderabad
A to Z Stationary,,17.409120000000,78.463653000000,near sensation theatre,# 6-1-355; ground floor; Cib quarters; lane opposite bada ganesh; Khairatabad; near sensation theatre; Hyderabad - 500004,Hyderabad
Sumukh Stationery & ladies corner,,17.408333000000,78.463945000000,Near sensation theater,6-1-347/g/1; Lakdika pool; old CIB Quarters; Khairatabad; Near sensation theater; Hyderabad - 500004,Hyderabad
Sri Laxmi Narsimha Stationery,,17.412855000000,78.461937000000,Near hanuman temple,# 6-1-528/12/3/a; BJR Nagar; Khairatabad; Near hanuman temple; Hyderabad - 500004,Hyderabad
Stationary & xerox shop,,17.406106300000,78.464498400000,Mughal restaurant,Vasavi complex; shop no.31; Sensation theatre road; Khairatabad; Mughal restaurant; Hyderabad - 500004,Hyderabad
Sahithi Stationery,,17.374700527778,78.439346305556,Near Muthooth Fincorp;Kulsumpura School,Karwan Main Road; Karwan; Near Muthooth Fincorp; Kulsumpura School; Hyderabad - 500006,Hyderabad
A To Z Stationery,,17.408982154219,78.463899737361,Opp. Expert driving,Sensation theatre lane; Khairatabad; Opp. Expert driving; Hyderabad - 500004,Hyderabad
Reliance Stationery & Book Seller,,17.375732416667,78.446533194444,Near Old Tappachabutra Police Station,Tappachabutra; Karwan Sahu; Near Old Tappachabutra Police Station; Hyderabad - 500006,Hyderabad
global communication,,17.380587000000,78.420167000000,beside maleka school,shop no 1; pemchan pura road; Langer House; beside maleka school; Hyderabad - 500008,Hyderabad
Sri Laxmi Stationery,,17.410954786938,78.463434077903,Near library;,# 6-1-943/3; ground floor; vegetable Market Road; Khairatabad; Near library; Hyderabad - 500004,Hyderabad
Om SAI Stores,,17.408749000000,78.411537000000,Opp Gate 2,Cisf Nisa; Tarakarama Nagar-Hakimpet; Opp Gate 2; Hyderabad - 500008,Hyderabad
Sunita Fancy & Bangle Store,,17.379513888889,78.421076388889,,Langer House; Hyderabad; Andhra Pradesh; Main Road; Lunger House; Hyderabad - 500008,Hyderabad
Excellent Xerox & Stationery,,17.374578000000,78.443620000000,Opposite Darbarmaisama Temple,13-4-40; Karwan Main Road; Karwan; Opposite Darbarmaisama Temple; Hyderabad - 500006,Hyderabad
Morning Star Stationary,,17.421053000000,78.456070000000,Beside Red Rose Restaurant,6-3-662/11; Sangeeth Nagar Errumanzil; Panjagutta; Beside Red Rose Restaurant; Hyderabad - 500082,Hyderabad
Rathod Printer Services & Cartridge Refilling,,17.424497100000,78.451038000000,Beside Panjagutta Ps,3-4-349/A; Panjagutta; Beside Panjagutta Ps; Hyderabad - 500082,Hyderabad
Naman Papers And Boards,,17.408141000000,78.465121000000,,Khairatabad; Hyderabad - 500004,Hyderabad
Balaji stationery genernal iteam,,17.408141000000,78.465121000000,,Khairatabad; Hyderabad - 500004,Hyderabad
Sagar Stationery Stores,,17.408141000000,78.465121000000,,Khairatabad; Hyderabad - 500004,Hyderabad
Surekha Stationery,,17.408141000000,78.465121000000,Near railway gate,Khairatabad; Near railway gate; Hyderabad - 500004,Hyderabad
Gupta Stationery & Gifts,,17.388778000000,78.463775000000,Opp SBI Bank,Shop No:5-6-268/1; Aghapura road; Agha Pura-Nampally; Opp SBI Bank; Hyderabad - 500001,Hyderabad
S Q Stationery,,17.406670000000,78.409888000000,Near mount mercy school,Ground floor; Brindavan colony; Toli Chowki; Near mount mercy school; Hyderabad - 500008,Hyderabad
Royal Stationary Mart,,17.403588000000,78.409255000000,Near galaxy theatre,8-1-523/271/5; Brindavan Colony; Toli Chowki; Near galaxy theatre; Hyderabad - 500008,Hyderabad
Sujatha     Book Stall,,17.378662426818,78.420659353334,Near Gandhi Statue,Langerhouse Main Road; Langer House; Near Gandhi Statue; Hyderabad - 500008,Hyderabad
Bharat Stationary Shop,,17.378265361111,78.421195972222,Opp To Bapughat,Shop.No: 9-1-364/D/4; Bapunagar; Langer House; Opp To Bapughat; Hyderabad - 500008,Hyderabad
MM book point,,17.386167000000,78.413333000000,Outside moti darwaza,Shop number-9-3-58/A/3/A; Ahmed colony; Golconda; Outside moti darwaza; Hyderabad - 500008,Hyderabad
Ananya Stationary & Xerox,,17.416072000000,78.462045000000,near khairthabad flyover,Shop no: 2; ms maqta; Somajiguda; near khairthabad flyover; Hyderabad - 500082,Hyderabad
Nagesh Stationary & Xerox,,17.373667000000,78.447000000000,Near Darbar Maisamma Temple,Shop.No: 13-6-14; Karwan sahu main road; Karwan Sahu; Near Darbar Maisamma Temple; Hyderabad - 500006,Hyderabad
Yousufain Stationery,,17.388160100000,78.464537000000,Beside mogul garden,Shop no.#5-6-634/1/A/4; Aghapura Road; Aghapura; Beside mogul garden; Hyderabad - 500028,Hyderabad
Sri Srinivasa Stationary,,17.427800000000,78.428612000000,Near Richmond School,Plot no 8-2-269/19/51/B; Road number 2; Indira Nagar colony; Banjara Hills; Near Richmond School; Hyderabad - 500034,Hyderabad
H B S Books Stationery,,17.386000000000,78.463500000000,Opp Gautham Model School,Shop No:11-1-138; Near Charkandil X Roads; Aghapura; Opp Gautham Model School; Hyderabad - 500028,Hyderabad
Sri Balaji Medical & General Stores,+(91)-40-65553202,17.429592111111,78.438774083333,icici bank,H no 8-3-988/34/11/1; kamalapuri colony; Sri Nagar Colony; icici bank; Hyderabad - 500073,Hyderabad
Azhar Stationary Kirana & General Store,,17.395325708219,78.449859554021,Near sa function hall,Shop no. 9-4-131/1/b/3; Nadeem colony road; Toli Chowki; Near sa function hall; Hyderabad - 500008,Hyderabad
Vijay Stationary & General Store,,17.392693000000,78.408729000000,Beside JVS Super Maket,Door No  9-1-34/14/7; Bapu Nagar-langar House; Beside JVS Super Maket; Hyderabad - 500008,Hyderabad
Global Book House,,17.392693000000,78.408729000000,Near delhi public school,2-65/1/b; Lanco hills road; Khaja Guda; Near delhi public school; Hyderabad - 500008,Hyderabad
Lakshmi Enterprises,,17.392693000000,78.408729000000,Opposite GRK Gardens,1st floor; Ara maissamma road; Suncity-Langar House; Opposite GRK Gardens; Hyderabad - 500008,Hyderabad
Sri Bapuji Book Center,,17.392693000000,78.408729000000,Near Hyder Shah Kote Bus Stop,Hyder Shah Kote; Suncity-Langar House; Near Hyder Shah Kote Bus Stop; Hyderabad - 500008,Hyderabad
Sri Sai Stationery,,17.392693000000,78.408729000000,Opp Sreenidhi School,Hyder Shah Kote; Hyder Shah Kote; Opp Sreenidhi School; Hyderabad - 500008,Hyderabad
Sri Sri Gurujis Stationery,,17.392693000000,78.408729000000,Near Kalimandir,Dwaraka Nagar; Hyder Shah Kote; Near Kalimandir; Hyderabad - 500008,Hyderabad
Sri Sai Stationary,,17.424288000000,78.455458000000,Backside yashodha hospital,6-3-906/b shop no. 1; Kumar basti; Somajiguda; Backside yashodha hospital; Hyderabad - 500082,Hyderabad
Sri Venkateswara Stationary,+(91)-40-32991568,17.392693000000,78.408729000000,Near New Sai Baba Temple,Ambedkar Nagar; Langer House; Near New Sai Baba Temple; Hyderabad - 500008,Hyderabad
Hi Tech Book point,,17.392693000000,78.408729000000,Near st joseph college,Delux colony; Toli Chowki; Near st joseph college; Hyderabad - 500008,Hyderabad
A1- Paramount Shop,,17.392693000000,78.408729000000,paramount gate no.02 behind gisimi llasa  centre,9-4-51/d; Paramount main road; Toli Chowki; paramount gate no.02 behind gisimi llasa  centre; Hyderabad - 500008,Hyderabad
Au Stationery,,17.392693000000,78.408729000000,Near Ntr Statue,Prashanth Nagar; Langer House; Near Ntr Statue; Hyderabad - 500008,Hyderabad
Lakshmi Bhavani Books & Stationery,,17.392693000000,78.408729000000,Opp Bheemas Take Away,Shop no. 1; Main road; O U Colony-Shaikpet; Opp Bheemas Take Away; Hyderabad - 500008,Hyderabad
Prince Stationary,,17.392693000000,78.408729000000,Near Fort,Golconda Road; Golconda; Near Fort; Hyderabad - 500008,Hyderabad
Bhavani Stationary Shop,,17.392693000000,78.408729000000,Near Govt School,Langerhouse; Langer House; Near Govt School; Hyderabad - 500008,Hyderabad
Sai Digital Multi Color Xerox,,17.392693000000,78.408729000000,Opp Ninjas Restaurant,Shop no. 1; Main road; O U Colony-Shaikpet; Opp Ninjas Restaurant; Hyderabad - 500008,Hyderabad
L M Collections,+(91)-40-23542332,17.392693000000,78.408729000000,opposite to lakshmi manidir,Shop no. 2 building no. 2-34; Vinayak nagar colony; Shaikpet; opposite to lakshmi manidir; Hyderabad - 500008,Hyderabad
Sravanthi Stationery,,17.392693000000,78.408729000000,Shaikpet nala,Shop no. 1; Beside lane of 7tombs road; Shaikpet; Shaikpet nala; Hyderabad - 500008,Hyderabad
A 2 Z School Needs,,17.392693000000,78.408729000000,Near to katora house,shop number 9-10-56/11/25/A; golconda main road; Golconda; Near to katora house; Hyderabad - 500008,Hyderabad
Sri Vidya Stationery,,17.392693000000,78.408729000000,Sai baba temple,Shop no. 1; Seetha nagar; Shaikpet; Sai baba temple; Hyderabad - 500008,Hyderabad
shazan Station,,17.392693000000,78.408729000000,Near  banjari darwaza,Reashambagh; Golconda; Near  banjari darwaza; Hyderabad - 500008,Hyderabad
Zunaid Stationary And Book Shop,,17.392693000000,78.408729000000,Near Gandhi Statue,Langerhouse; Langer House; Near Gandhi Statue; Hyderabad - 500008,Hyderabad
Sandeep Book Stall,,17.392693000000,78.408729000000,Near ICICI Atm,13-2-423; Langerhouse; Langer House; Near ICICI Atm; Hyderabad - 500008,Hyderabad
Satya Sai Communications,,17.392693000000,78.408729000000,Near NTR statue,Langerhouse; Langer House; Near NTR statue; Hyderabad - 500008,Hyderabad
Ritisha Stationary,,17.392693000000,78.408729000000,Near Gandhi Statue,Langerhouse; Langer House; Near Gandhi Statue; Hyderabad - 500008,Hyderabad
Vaishnavi Stationary,,17.392693000000,78.408729000000,Near Kalimatha Temple,Kalimandir Road; Suncity-Langar House; Near Kalimatha Temple; Hyderabad - 500008,Hyderabad
SV Stationary,,17.392693000000,78.408729000000,opp om medical and general store,hydershokate; Suncity-Langar House; opp om medical and general store; Hyderabad - 500008,Hyderabad
Sri Laxmi Venkateswara Stationary And Gift Articals,,17.392693000000,78.408729000000,Opp To Kranthi School,Langerhouse; Langer House; Opp To Kranthi School; Hyderabad - 500008,Hyderabad
Venkateshwara Xerox & Stationary,,17.416302929649,78.412052560671,Near Apollo Hospital;Road No:78,Plot No. b88; Journalist Colony; Apollo Hospital lane; Jubilee Hills; Near Apollo Hospital; Road No:78; Hyderabad - 500033,Hyderabad
Sri Chaitanya Stationary,,17.429867000000,78.437042000000,Near Law Collage,Yellareddy Guda; Sri Nagar Colony; Near Law Collage; Hyderabad - 500073,Hyderabad
Madina book depot,,17.397950000000,78.407312000000,Beside andhra bank,9-4-87/74/A; Tolichowki main road; Toli Chowki; Beside andhra bank; Hyderabad - 500008,Hyderabad
Cyberden Xerox And Games,,17.397887000000,78.407387000000,near to masjid e Umer farooq,Shop no. 9-8-358/A; Bada bazar Golconda fort; Golconda; near to masjid e Umer farooq; Hyderabad - 500008,Hyderabad
Sri Sai Surya Stationery,,17.375075000000,78.422897000000,Hasham Nagar,Main Road; Langer House; Hasham Nagar; Hyderabad - 500008,Hyderabad
Bhavani Communication,+(91)-40-23549004,17.417625000000,78.412597000000,Beside Icici bank,Plot no. B-43; shop no. 2; Road No. 2; Journalist Colony; Apollo Road; Jubilee Hills; Beside Icici bank; Hyderabad - 500033,Hyderabad
Aziz Stationery,,17.382091400000,78.461816400000,,11-1-324; 325; Daru Salam Road; Hyderabad - 500001,Hyderabad
Blue Tech Office Solutions,+(91)-40-40064737,17.422082800000,78.459564000000,Beside Praful Honda,Shop No 6-3-899/6; Ground Floor; Somajiguda; Beside Praful Honda; Hyderabad - 500082,Hyderabad
Sri Sai Laxmi Communications,,17.417172000000,78.411780000000,Beside lAne of Page 3 near appolo hospital,D no:  8-2-293/82/J/61B; Journalist Colny; Jubilee Hills; Beside lAne of Page 3 near appolo hospital; Hyderabad - 500033,Hyderabad
F Z Stationary,,17.374295000000,78.423080000000,Near Fire station,Hasham Nagar; Langer House; Near Fire station; Hyderabad - 500008,Hyderabad
A Natwerlal And Sons,+(91)-40-23351663; +(91)-40-23354075,17.427675160596,78.451859057023,Near SS tea point,Shop no.1; Panjagutta Main Road; Panjagutta; Near SS tea point; Hyderabad - 500082,Hyderabad
Rainbow Stationary,,17.426456000000,78.454248000000,Lane opposite saboo motors,6-3-663/12; jaffar ali bagh; Somajiguda; Lane opposite saboo motors; Hyderabad - 500082,Hyderabad
K.c.r. Stationery & Bags,,17.383589618855,78.463838389216,Near jyoti Indian gas office,11-1-295/2; Aghapura; Agha Pura-Nampally; Near jyoti Indian gas office; Hyderabad - 500001,Hyderabad
Morning Star Stationary,,17.426456000000,78.454248000000,Beside petrol pump lane,Panjagutta; Panjagutta; Beside petrol pump lane; Hyderabad - 500082,Hyderabad
A M Stationery,,17.426456000000,78.454248000000,Near hussaini masjid,B s maktha; Somajiguda; Near hussaini masjid; Hyderabad - 500082,Hyderabad
Shiva sai Stationery,,17.370908722222,78.442932111111,Beside Water Board,Sabzi Mandi; Jiyaguda; Beside Water Board; Hyderabad - 500006,Hyderabad
Farooq Stationery & Electronics,,17.372592000000,78.449378000000,Beside MESCO College,Shop No: 13-5-815; Mustaidpura; Karwan; Beside MESCO College; Hyderabad - 500006,Hyderabad
Ashapura Enterprises,+(91)-40-66204345; +(91)-40-66364345,17.423583000000,78.458633000000,Opposite health and glow,shop no 6-3-1090; somajiguda main road; Somajiguda; Opposite health and glow; Hyderabad - 500082,Hyderabad
National Book Traders,,17.380005000000,78.461267000000,Near Mangalhat Police Station,Door No.14-1-285/3; Mangalhat; Mangalhat; Near Mangalhat Police Station; Hyderabad - 500006,Hyderabad
Apsara Enterprises,,17.429577265882,78.448467906638,Panjagutta Road,Shop no 7-3-952/101/A; Main Road Srinagar; Sri Nagar Colony; Panjagutta Road; Hyderabad - 500073,Hyderabad
Omer Traders,,17.379870000000,78.461242000000,Opposite to classic Medical Hall,14-1-285/3; Mangalhat Road; Mangalhat; Opposite to classic Medical Hall; Hyderabad - 500006,Hyderabad
Apsara Enterprises,,17.429620000000,78.448350000000,Big bazar back side,8-3-952/10/1/a; sri nagar colony; Panjagutta; Big bazar back side; Hyderabad - 500082,Hyderabad
Shivadas Stationary,,17.372202000000,78.449242000000,Near Gopi Hotel,Kamela Road; Jiyaguda; Near Gopi Hotel; Hyderabad - 500006,Hyderabad
A-1 Stationary Shop,,17.375951510690,78.419208526611,Opposite To Prathap Cinema; SBH,Shop no-2; Langerhouse; Langer House; Opposite To Prathap Cinema; SBH; Hyderabad - 500008,Hyderabad
Akash Stationary,+(91)-40-64526005,17.425199649313,78.457412654607,OPPOSITE yashoda hospital,D No:6-3-1091/2; Raj Bhavan Main Road; Somajiguda; OPPOSITE yashoda hospital; Hyderabad - 500082,Hyderabad
Akash Stationery; Somajiguda,,17.425158000000,78.457480000000,,6-3-1091/2; Raj Bhavan Rd; Beside Laxmi Motors; Somajiguda; Panjagutta; Hyderabad; Panjagutta; Hyderabad - 500082,Hyderabad
Shiva Book Stationary,,17.372222888889,78.449882500000,Near H P Petrol Pump,Shop no 13-6-457/1; Shiva Bagh; Gayatri Nagar; Gudi Malkapur; Near H P Petrol Pump; Hyderabad - 500028,Hyderabad
M M Xerox & Stationery,,17.383493416667,78.464561444444,Beside Hamed Cafe Hotel,Door No 11-1-306/3; Main Road; Aghapura; Beside Hamed Cafe Hotel; Hyderabad - 500028,Hyderabad
Madina Stationary And Xerox,,17.387292000000,78.467072000000,Next To Madina Medical Store,Station Road; Nampally; Next To Madina Medical Store; Hyderabad - 500001,Hyderabad
People Xerox,,17.430453000000,78.446992000000,Backside Lane Chermas; Near Kama Sangam Building,Shop No # 6; Sanali Heavens; Nagajuna Nagar colony; Ameerpet; Backside Lane Chermas; Near Kama Sangam Building; Hyderabad - 500016,Hyderabad
Akash Stationery,,17.425475000000,78.457384000000,Beside Lakshmi motors,6-3-1091/2; Rajbhavan Road; Somajiguda; Beside Lakshmi motors; Hyderabad - 500082,Hyderabad
Sara Stationery & Xerox,,17.384298811683,78.410396380423,Opposite kaba bakery,Shop no. 9-11-2/1/154; Moti darwaza road; Golconda; Opposite kaba bakery; Hyderabad - 500008,Hyderabad
Waliuddin Stationeries,,17.372167000000,78.450833000000,Near Durvesh Function Hall,Ring Road; Mehdipatnam; Near Durvesh Function Hall; Hyderabad - 500028,Hyderabad
Sunitha Fancy & Bangle Stores,,17.375208333333,78.419305555556,,Langer House; Hyderabad; Andhra Pradesh; Main Road; Lunger House; Hyderabad - 500008,Hyderabad
Tanuja Bangles & Ladies Corner,,17.375104166667,78.419444444444,,Langer House; Hyderabad; Andhra Pradesh; Main Road; Lunger House; Hyderabad - 500008,Hyderabad
OM SHREE Siddeshwara Stationary,,17.428579903224,78.452651901244,Opp Hamstech Fashion Training,Shop no #6-3-709/1/13/A; Pochamma Basti  rd; Panjagutta; Opp Hamstech Fashion Training; Hyderabad - 500082,Hyderabad
Sri Sai Stationary & Xerox,,17.431764397786,78.442972814737,Near Water Works Office,Shop  No 8-3-835/2; Sri Nagar Colony rd; Yellareddyguda; Near Water Works Office; Hyderabad - 500073,Hyderabad
Aarthi Stationery,,17.375550000000,78.418175000000,Near Bapughat,Bapughat Main Road; Langer House; Near Bapughat; Hyderabad - 500008,Hyderabad
Hyderabad Stationery,,17.374941666700,78.418908333300,Opposite zeeshan cafe,Banjari darwaja; Toli Chowki; Opposite zeeshan cafe; Hyderabad - 500008,Hyderabad
Laxmi Stationery,,17.375267500000,78.417990000000,,Shiva Kiran School Lane; Bapunagar; Suncity-Langar House; Hyderabad - 500008,Hyderabad
Vinayaka Stationary And Xerox,,17.374837000000,78.418433000000,Near Sai Ram Concept School,H.no:9-1-43/27/A; Prashanthnagar; Langer House; Near Sai Ram Concept School; Hyderabad - 500008,Hyderabad
Saniya Stationers,,17.397787000000,78.404595000000,7 tombs road,shop no 2; Samatha Colony; Toli Chowki; 7 tombs road; Hyderabad - 500008,Hyderabad
Deepu Stationery,,17.432438470440,78.441737238391,Opp Corporation bank ATM,Door no: 8-3-748/12/A; P R R Law College Lane; Yellareddyguda; Opp Corporation bank ATM; Hyderabad - 500073,Hyderabad
Sri Sai Books & Stationary,,17.374394745985,78.419016117866,Opp To Dental College Lane,Bapunagar; Langer House; Opp To Dental College Lane; Hyderabad - 500008,Hyderabad
Prem Books & Stationery,,17.374092000000,78.419280000000,Opposite To Brilliant World School,9-1-34/7; ground floor; Bapunagar Langer House; Langer House; Opposite To Brilliant World School; Hyderabad - 500008,Hyderabad
Sri Lakshmi Book Stall,,17.374113000000,78.419180000000,Near Kranthi School,Bapunagar; Langer House; Near Kranthi School; Hyderabad - 500008,Hyderabad
Sri Peddammatalli Stationery,,17.431828000000,78.429358000000,Green Bawarchi Lane; beside dtdc,Shop number 25; Krishna nagar colony; Yousufguda; Green Bawarchi Lane; beside dtdc; Hyderabad - 500045,Hyderabad
Cnu Stationery Shop,,17.431887000000,78.429337000000,Opp stadium,LN nagar; Yousufguda; Opp stadium; Hyderabad - 500045,Hyderabad
Gunnu Stationery,,17.431887000000,78.429337000000,Green Bawarchi Lane,Sri Krishna Nagar; Yousufguda; Green Bawarchi Lane; Hyderabad - 500045,Hyderabad
Sri Vaishnavi Book Stall,,17.374496444444,78.418190000000,Near NTR Statue,Shop no 1; Bapu Ghat Langer house; Lunger House; Near NTR Statue; Hyderabad - 500008,Hyderabad
Syed Stationery,,17.381663000000,78.410653000000,beside baqueri function hall,#9-8-480/a/5/40; chota bazar; Golconda; beside baqueri function hall; Hyderabad - 500008,Hyderabad
Mega Stationary,,17.433105000000,78.439697000000,Near Law Collage,Subash Nagar; Padala Ramareddy Colony-Yellareddyguda; Near Law Collage; Hyderabad - 500073,Hyderabad
Ras communications,,17.431903200000,78.428297000000,Near Grave Yard,Sri Ram Nagar; Yousufguda; Near Grave Yard; Hyderabad - 500045,Hyderabad
Ramdev Stationer & Xerox,,17.431903200000,78.428297000000,opp kotak bank,Shop no 1; madhuranagar; Yousufguda; opp kotak bank; Hyderabad - 500045,Hyderabad
